{"type": "FeatureCollection", "features": [{"type": "Feature", "geometry": {"type": "Polygon", "coordinates": [[[13.0, 41.7], [14.8, 41.7], [14.8, 42.9], [13.0, 42.9], [13.0, 41.7]]]}, "properties": {"Title": "Regione Abruzzo", "Description": "Carta Geologica 1:25.000", "URL": "http://geoportal.regione.abruzzo.it/Cartonet", "Location": "Abruzzo", "Type": "Regional Portal"}}, {"type": "Feature", "geometry": {"type": "Polygon", "coordinates": [[[15.3, 39.9], [16.9, 39.9], [16.9, 41.1], [15.3, 41.1], [15.3, 39.9]]]}, "properties": {"Title": "Regione Basilicata", "Description": "Geoportale RSDI", "URL": "https://rsdi.regione.basilicata.it/", "Location": "Basilicata", "Type": "Regional Portal"}}, {"type": "Feature", "geometry": {"type": "Polygon", "coordinates": [[[15.6, 37.9], [17.2, 37.9], [17.2, 40.2], [15.6, 40.2], [15.6, 37.9]]]}, "properties": {"Title": "Regione Calabria", "Description": "Geoportale Regionale", "URL": "http://geoportale.regione.calabria.it/opencms/opencms/", "Location": "Calabria", "Type": "Regional Portal"}}, {"type": "Feature", "geometry": {"type": "Polygon", "coordinates": [[[13.8, 40.0], [15.7, 40.0], [15.7, 41.5], [13.8, 41.5], [13.8, 40.0]]]}, "properties": {"Title": "Regione Campania", "Description": "Carta Geologica Regionale", "URL": "https://sit.regione.campania.it/portal/apps/webappviewer/index.html?id=5691f6c00c0246229950e6e891d9b1a6", "Location": "Campania", "Type": "Regional Portal"}}, {"type": "Feature", "geometry": {"type": "Polygon", "coordinates": [[[9.2, 43.7], [12.8, 43.7], [12.8, 45.1], [9.2, 45.1], [9.2, 43.7]]]}, "properties": {"Title": "Regione Emilia-Romagna", "Description": "Eccellenza: Cartografia 1:10.000 vettoriale completa", "URL": "https://geoportale.regione.emilia-romagna.it/approfondimenti/cartografia-geologica", "Location": "Emilia-Romagna", "Type": "Regional Portal"}}, {"type": "Feature", "geometry": {"type": "Polygon", "coordinates": [[[12.3, 45.6], [13.9, 45.6], [13.9, 46.6], [12.3, 46.6], [12.3, 45.6]]]}, "properties": {"Title": "Regione Friuli Venezia Giulia", "Description": "Cartografia Geologica Online (Eagle)", "URL": "https://eagle.regione.fvg.it/eagle/main.aspx", "Location": "Friuli Venezia Giulia", "Type": "Regional Portal"}}, {"type": "Feature", "geometry": {"type": "Polygon", "coordinates": [[[11.4, 41.2], [14.0, 41.2], [14.0, 42.8], [11.4, 42.8], [11.4, 41.2]]]}, "properties": {"Title": "Regione Lazio", "Description": "Portale Cartografico", "URL": "http://www.cartografia.regione.lazio.it/cartanet/catalogo/geologia", "Location": "Lazio", "Type": "Regional Portal"}}, {"type": "Feature", "geometry": {"type": "Polygon", "coordinates": [[[7.5, 43.7], [10.0, 43.7], [10.0, 44.5], [7.5, 44.5], [7.5, 43.7]]]}, "properties": {"Title": "Regione Liguria", "Description": "Repertorio Cartografico", "URL": "https://geoportal.regione.liguria.it/", "Location": "Liguria", "Type": "Regional Portal"}}, {"type": "Feature", "geometry": {"type": "Polygon", "coordinates": [[[8.5, 44.6], [11.4, 44.6], [11.4, 46.6], [8.5, 46.6], [8.5, 44.6]]]}, "properties": {"Title": "Regione Lombardia", "Description": "Geoportale (Dati geologici WMS/WFS disponibili)", "URL": "https://www.geoportal.regione.lombardia.it/", "Location": "Lombardia", "Type": "Regional Portal"}}, {"type": "Feature", "geometry": {"type": "Polygon", "coordinates": [[[12.2, 42.7], [13.9, 42.7], [13.9, 44.0], [12.2, 44.0], [12.2, 42.7]]]}, "properties": {"Title": "Regione Marche", "Description": "Carta Geologica", "URL": "https://www.regione.marche.it/Regione-Utile/Paesaggio-Territorio-Urbanistica-Genio-Civile/Cartografia-e-informazioni-territoriali", "Location": "Marche", "Type": "Regional Portal"}}, {"type": "Feature", "geometry": {"type": "Polygon", "coordinates": [[[13.9, 41.4], [15.1, 41.4], [15.1, 42.0], [13.9, 42.0], [13.9, 41.4]]]}, "properties": {"Title": "Regione Molise", "Description": "SIT Molise", "URL": "https://sitmolise.regione.molise.it/viewer/", "Location": "Molise", "Type": "Regional Portal"}}, {"type": "Feature", "geometry": {"type": "Polygon", "coordinates": [[[6.6, 44.0], [9.2, 44.0], [9.2, 46.5], [6.6, 46.5], [6.6, 44.0]]]}, "properties": {"Title": "Regione Piemonte", "Description": "GeoPiemonte (Ottimi dati WMS)", "URL": "https://www.geoportale.piemonte.it/cms/argomenti/geologia-e-geotecnica", "Location": "Piemonte", "Type": "Regional Portal"}}, {"type": "Feature", "geometry": {"type": "Polygon", "coordinates": [[[14.9, 39.8], [18.5, 39.8], [18.5, 41.9], [14.9, 41.9], [14.9, 39.8]]]}, "properties": {"Title": "Regione Puglia", "Description": "SIT Puglia - Carta Geologica", "URL": "http://www.sit.puglia.it/portal/portale_cartografie_tecniche_tematiche/Cartografie/Geologica", "Location": "Puglia", "Type": "Regional Portal"}}, {"type": "Feature", "geometry": {"type": "Polygon", "coordinates": [[[8.1, 38.8], [9.9, 38.8], [9.9, 41.3], [8.1, 41.3], [8.1, 38.8]]]}, "properties": {"Title": "Regione Sardegna", "Description": "Sardegna Geoportale", "URL": "https://www.sardegnageoportale.it/", "Location": "Sardegna", "Type": "Regional Portal"}}, {"type": "Feature", "geometry": {"type": "Polygon", "coordinates": [[[12.4, 36.6], [15.7, 36.6], [15.7, 38.3], [12.4, 38.3], [12.4, 36.6]]]}, "properties": {"Title": "Regione Sicilia", "Description": "SITR Sicilia", "URL": "https://www.sitr.regione.sicilia.it/", "Location": "Sicilia", "Type": "Regional Portal"}}, {"type": "Feature", "geometry": {"type": "Polygon", "coordinates": [[[9.6, 42.2], [12.4, 42.2], [12.4, 44.5], [9.6, 44.5], [9.6, 42.2]]]}, "properties": {"Title": "Regione Toscana", "Description": "Geoscopio (Eccellenza: Carta 1:10k continua)", "URL": "https://www502.regione.toscana.it/geoscopio/cartageologica.html", "Location": "Toscana", "Type": "Regional Portal"}}, {"type": "Feature", "geometry": {"type": "Polygon", "coordinates": [[[10.4, 45.7], [11.9, 45.7], [11.9, 46.5], [10.4, 46.5], [10.4, 45.7]]]}, "properties": {"Title": "Regione Trentino-Alto Adige (Trento)", "Description": "Portale Geocartografico Trentino", "URL": "http://www.territorio.provincia.tn.it/portal/server.pt/community/portale_geocartografico_trentino/254", "Location": "Trentino-Alto Adige (Trento)", "Type": "Regional Portal"}}, {"type": "Feature", "geometry": {"type": "Polygon", "coordinates": [[[10.4, 46.5], [12.3, 46.5], [12.3, 47.1], [10.4, 47.1], [10.4, 46.5]]]}, "properties": {"Title": "Regione Trentino-Alto Adige (Bolzano)", "Description": "GeoCatalogo Bolzano", "URL": "http://geocatalogo.retecivica.bz.it/geokatalog", "Location": "Trentino-Alto Adige (Bolzano)", "Type": "Regional Portal"}}, {"type": "Feature", "geometry": {"type": "Polygon", "coordinates": [[[11.9, 42.4], [13.0, 42.4], [13.0, 43.6], [11.9, 43.6], [11.9, 42.4]]]}, "properties": {"Title": "Regione Umbria", "Description": "Servizio Geologico Umbria", "URL": "https://www.regione.umbria.it/territorio/paesaggio/geologia", "Location": "Umbria", "Type": "Regional Portal"}}, {"type": "Feature", "geometry": {"type": "Polygon", "coordinates": [[[6.8, 45.3], [7.9, 45.3], [7.9, 46.0], [6.8, 46.0], [6.8, 45.3]]]}, "properties": {"Title": "Regione Valle d'Aosta", "Description": "Geoportale VDA", "URL": "https://geoportale.regione.vda.it/", "Location": "Valle d'Aosta", "Type": "Regional Portal"}}, {"type": "Feature", "geometry": {"type": "Polygon", "coordinates": [[[10.6, 44.9], [13.1, 44.9], [13.1, 46.7], [10.6, 46.7], [10.6, 44.9]]]}, "properties": {"Title": "Regione Veneto", "Description": "Infrastruttura Dati Territoriali", "URL": "https://idt2.regione.veneto.it/", "Location": "Veneto", "Type": "Regional Portal"}}]}