{"type": "FeatureCollection", "features": [{"type": "Feature", "geometry": {"type": "Polygon", "coordinates": [[[10.85, 46.4], [11.15, 46.4], [11.15, 46.6], [10.85, 46.6], [10.85, 46.4]]]}, "properties": {"Title": "CARG Foglio 014 - DOBBIACO", "DOI": "ISPRA-CARG-014", "URL": "https://www.isprambiente.gov.it/Media/carg/014_DOBBIACO/Foglio.html", "Location": "Italy (CARG Grid)", "Type": "Official Map (1:50k)"}}, {"type": "Feature", "geometry": {"type": "Polygon", "coordinates": [[[10.85, 46.4], [11.15, 46.4], [11.15, 46.6], [10.85, 46.6], [10.85, 46.4]]]}, "properties": {"Title": "CARG Foglio 015 - VIPITENO", "DOI": "ISPRA-CARG-015", "URL": "https://www.isprambiente.gov.it/Media/carg/015_VIPITENO/Foglio.html", "Location": "Italy (CARG Grid)", "Type": "Official Map (1:50k)"}}, {"type": "Feature", "geometry": {"type": "Polygon", "coordinates": [[[10.85, 46.4], [11.15, 46.4], [11.15, 46.6], [10.85, 46.6], [10.85, 46.4]]]}, "properties": {"Title": "CARG Foglio 016 - BRUNICO", "DOI": "ISPRA-CARG-016", "URL": "https://www.isprambiente.gov.it/Media/carg/016_BRUNICO/Foglio.html", "Location": "Italy (CARG Grid)", "Type": "Official Map (1:50k)"}}, {"type": "Feature", "geometry": {"type": "Polygon", "coordinates": [[[10.85, 46.4], [11.15, 46.4], [11.15, 46.6], [10.85, 46.6], [10.85, 46.4]]]}, "properties": {"Title": "CARG Foglio 024 - BORMIO", "DOI": "ISPRA-CARG-024", "URL": "https://www.isprambiente.gov.it/Media/carg/024_BORMIO/Foglio.html", "Location": "Italy (CARG Grid)", "Type": "Official Map (1:50k)"}}, {"type": "Feature", "geometry": {"type": "Polygon", "coordinates": [[[10.85, 46.4], [11.15, 46.4], [11.15, 46.6], [10.85, 46.6], [10.85, 46.4]]]}, "properties": {"Title": "CARG Foglio 026 - APPPIANO", "DOI": "ISPRA-CARG-026", "URL": "https://www.isprambiente.gov.it/Media/carg/026_APPPIANO/Foglio.html", "Location": "Italy (CARG Grid)", "Type": "Official Map (1:50k)"}}, {"type": "Feature", "geometry": {"type": "Polygon", "coordinates": [[[10.85, 46.4], [11.15, 46.4], [11.15, 46.6], [10.85, 46.6], [10.85, 46.4]]]}, "properties": {"Title": "CARG Foglio 027 - BOLZANO", "DOI": "ISPRA-CARG-027", "URL": "https://www.isprambiente.gov.it/Media/carg/027_BOLZANO/Foglio.html", "Location": "Italy (CARG Grid)", "Type": "Official Map (1:50k)"}}, {"type": "Feature", "geometry": {"type": "Polygon", "coordinates": [[[10.85, 46.4], [11.15, 46.4], [11.15, 46.6], [10.85, 46.6], [10.85, 46.4]]]}, "properties": {"Title": "CARG Foglio 028 - LA MARMOLADA", "DOI": "ISPRA-CARG-028", "URL": "https://www.isprambiente.gov.it/Media/carg/028_LA_MARMOLADA/Foglio.html", "Location": "Italy (CARG Grid)", "Type": "Official Map (1:50k)"}}, {"type": "Feature", "geometry": {"type": "Polygon", "coordinates": [[[10.85, 46.4], [11.15, 46.4], [11.15, 46.6], [10.85, 46.6], [10.85, 46.4]]]}, "properties": {"Title": "CARG Foglio 029 - CORTINA D'AMPEZZO", "DOI": "ISPRA-CARG-029", "URL": "https://www.isprambiente.gov.it/Media/carg/029_CORTINA_DAMPEZZO/Foglio.html", "Location": "Italy (CARG Grid)", "Type": "Official Map (1:50k)"}}, {"type": "Feature", "geometry": {"type": "Polygon", "coordinates": [[[10.85, 46.4], [11.15, 46.4], [11.15, 46.6], [10.85, 46.6], [10.85, 46.4]]]}, "properties": {"Title": "CARG Foglio 042 - COLICO", "DOI": "ISPRA-CARG-042", "URL": "https://www.isprambiente.gov.it/Media/carg/042_COLICO/Foglio.html", "Location": "Italy (CARG Grid)", "Type": "Official Map (1:50k)"}}, {"type": "Feature", "geometry": {"type": "Polygon", "coordinates": [[[10.85, 46.4], [11.15, 46.4], [11.15, 46.6], [10.85, 46.6], [10.85, 46.4]]]}, "properties": {"Title": "CARG Foglio 043 - SONDRIO", "DOI": "ISPRA-CARG-043", "URL": "https://www.isprambiente.gov.it/Media/carg/043_SONDRIO/Foglio.html", "Location": "Italy (CARG Grid)", "Type": "Official Map (1:50k)"}}, {"type": "Feature", "geometry": {"type": "Polygon", "coordinates": [[[10.85, 46.4], [11.15, 46.4], [11.15, 46.6], [10.85, 46.6], [10.85, 46.4]]]}, "properties": {"Title": "CARG Foglio 044 - ADAMELLO", "DOI": "ISPRA-CARG-044", "URL": "https://www.isprambiente.gov.it/Media/carg/044_ADAMELLO/Foglio.html", "Location": "Italy (CARG Grid)", "Type": "Official Map (1:50k)"}}, {"type": "Feature", "geometry": {"type": "Polygon", "coordinates": [[[10.85, 46.4], [11.15, 46.4], [11.15, 46.6], [10.85, 46.6], [10.85, 46.4]]]}, "properties": {"Title": "CARG Foglio 045 - TIONE DI TRENTO", "DOI": "ISPRA-CARG-045", "URL": "https://www.isprambiente.gov.it/Media/carg/045_TIONE_DI_TRENTO/Foglio.html", "Location": "Italy (CARG Grid)", "Type": "Official Map (1:50k)"}}, {"type": "Feature", "geometry": {"type": "Polygon", "coordinates": [[[10.85, 46.4], [11.15, 46.4], [11.15, 46.6], [10.85, 46.6], [10.85, 46.4]]]}, "properties": {"Title": "CARG Foglio 056 - BRESCIA", "DOI": "ISPRA-CARG-056", "URL": "https://www.isprambiente.gov.it/Media/carg/056_BRESCIA/Foglio.html", "Location": "Italy (CARG Grid)", "Type": "Official Map (1:50k)"}}, {"type": "Feature", "geometry": {"type": "Polygon", "coordinates": [[[10.85, 46.4], [11.15, 46.4], [11.15, 46.6], [10.85, 46.6], [10.85, 46.4]]]}, "properties": {"Title": "CARG Foglio 057 - MALCESINE", "DOI": "ISPRA-CARG-057", "URL": "https://www.isprambiente.gov.it/Media/carg/057_MALCESINE/Foglio.html", "Location": "Italy (CARG Grid)", "Type": "Official Map (1:50k)"}}, {"type": "Feature", "geometry": {"type": "Polygon", "coordinates": [[[10.85, 46.4], [11.15, 46.4], [11.15, 46.6], [10.85, 46.6], [10.85, 46.4]]]}, "properties": {"Title": "CARG Foglio 058 - ROVERETO", "DOI": "ISPRA-CARG-058", "URL": "https://www.isprambiente.gov.it/Media/carg/058_ROVERETO/Foglio.html", "Location": "Italy (CARG Grid)", "Type": "Official Map (1:50k)"}}, {"type": "Feature", "geometry": {"type": "Polygon", "coordinates": [[[10.85, 46.4], [11.15, 46.4], [11.15, 46.6], [10.85, 46.6], [10.85, 46.4]]]}, "properties": {"Title": "CARG Foglio 059 - TRENTO", "DOI": "ISPRA-CARG-059", "URL": "https://www.isprambiente.gov.it/Media/carg/059_TRENTO/Foglio.html", "Location": "Italy (CARG Grid)", "Type": "Official Map (1:50k)"}}, {"type": "Feature", "geometry": {"type": "Polygon", "coordinates": [[[10.85, 46.4], [11.15, 46.4], [11.15, 46.6], [10.85, 46.6], [10.85, 46.4]]]}, "properties": {"Title": "CARG Foglio 060 - LEVICO", "DOI": "ISPRA-CARG-060", "URL": "https://www.isprambiente.gov.it/Media/carg/060_LEVICO/Foglio.html", "Location": "Italy (CARG Grid)", "Type": "Official Map (1:50k)"}}, {"type": "Feature", "geometry": {"type": "Polygon", "coordinates": [[[10.85, 46.4], [11.15, 46.4], [11.15, 46.6], [10.85, 46.6], [10.85, 46.4]]]}, "properties": {"Title": "CARG Foglio 064 - ROVATO", "DOI": "ISPRA-CARG-064", "URL": "https://www.isprambiente.gov.it/Media/carg/064_ROVATO/Foglio.html", "Location": "Italy (CARG Grid)", "Type": "Official Map (1:50k)"}}, {"type": "Feature", "geometry": {"type": "Polygon", "coordinates": [[[10.85, 46.4], [11.15, 46.4], [11.15, 46.6], [10.85, 46.6], [10.85, 46.4]]]}, "properties": {"Title": "CARG Foglio 065 - ADRO", "DOI": "ISPRA-CARG-065", "URL": "https://www.isprambiente.gov.it/Media/carg/065_ADRO/Foglio.html", "Location": "Italy (CARG Grid)", "Type": "Official Map (1:50k)"}}, {"type": "Feature", "geometry": {"type": "Polygon", "coordinates": [[[10.85, 46.4], [11.15, 46.4], [11.15, 46.6], [10.85, 46.6], [10.85, 46.4]]]}, "properties": {"Title": "CARG Foglio 066 - UDINE", "DOI": "ISPRA-CARG-066", "URL": "https://www.isprambiente.gov.it/Media/carg/066_UDINE/Foglio.html", "Location": "Italy (CARG Grid)", "Type": "Official Map (1:50k)"}}, {"type": "Feature", "geometry": {"type": "Polygon", "coordinates": [[[10.85, 46.4], [11.15, 46.4], [11.15, 46.6], [10.85, 46.6], [10.85, 46.4]]]}, "properties": {"Title": "CARG Foglio 086 - SAN VITO AL TAGLIAMENTO", "DOI": "ISPRA-CARG-086", "URL": "https://www.isprambiente.gov.it/Media/carg/086_SAN_VITO_AL_TAGLIAMENTO/Foglio.html", "Location": "Italy (CARG Grid)", "Type": "Official Map (1:50k)"}}, {"type": "Feature", "geometry": {"type": "Polygon", "coordinates": [[[10.85, 46.4], [11.15, 46.4], [11.15, 46.6], [10.85, 46.6], [10.85, 46.4]]]}, "properties": {"Title": "CARG Foglio 087 - GRADISCA D'ISONZO", "DOI": "ISPRA-CARG-087", "URL": "https://www.isprambiente.gov.it/Media/carg/087_GRADISCA_DISONZO/Foglio.html", "Location": "Italy (CARG Grid)", "Type": "Official Map (1:50k)"}}, {"type": "Feature", "geometry": {"type": "Polygon", "coordinates": [[[10.85, 46.4], [11.15, 46.4], [11.15, 46.6], [10.85, 46.6], [10.85, 46.4]]]}, "properties": {"Title": "CARG Foglio 088 - TRIESTE", "DOI": "ISPRA-CARG-088", "URL": "https://www.isprambiente.gov.it/Media/carg/088_TRIESTE/Foglio.html", "Location": "Italy (CARG Grid)", "Type": "Official Map (1:50k)"}}, {"type": "Feature", "geometry": {"type": "Polygon", "coordinates": [[[10.85, 46.4], [11.15, 46.4], [11.15, 46.6], [10.85, 46.6], [10.85, 46.4]]]}, "properties": {"Title": "CARG Foglio 091 - CHATILLON", "DOI": "ISPRA-CARG-091", "URL": "https://www.isprambiente.gov.it/Media/carg/091_CHATILLON/Foglio.html", "Location": "Italy (CARG Grid)", "Type": "Official Map (1:50k)"}}, {"type": "Feature", "geometry": {"type": "Polygon", "coordinates": [[[10.85, 46.4], [11.15, 46.4], [11.15, 46.6], [10.85, 46.6], [10.85, 46.4]]]}, "properties": {"Title": "CARG Foglio 092 - AOSTA", "DOI": "ISPRA-CARG-092", "URL": "https://www.isprambiente.gov.it/Media/carg/092_AOSTA/Foglio.html", "Location": "Italy (CARG Grid)", "Type": "Official Map (1:50k)"}}, {"type": "Feature", "geometry": {"type": "Polygon", "coordinates": [[[9.85, 44.9], [10.15, 44.9], [10.15, 45.1], [9.85, 45.1], [9.85, 44.9]]]}, "properties": {"Title": "CARG Foglio 118 - MILANO", "DOI": "ISPRA-CARG-118", "URL": "https://www.isprambiente.gov.it/Media/carg/118_MILANO/Foglio.html", "Location": "Italy (CARG Grid)", "Type": "Official Map (1:50k)"}}, {"type": "Feature", "geometry": {"type": "Polygon", "coordinates": [[[9.85, 44.9], [10.15, 44.9], [10.15, 45.1], [9.85, 45.1], [9.85, 44.9]]]}, "properties": {"Title": "CARG Foglio 119 - TREVIGLIO", "DOI": "ISPRA-CARG-119", "URL": "https://www.isprambiente.gov.it/Media/carg/119_TREVIGLIO/Foglio.html", "Location": "Italy (CARG Grid)", "Type": "Official Map (1:50k)"}}, {"type": "Feature", "geometry": {"type": "Polygon", "coordinates": [[[9.85, 44.9], [10.15, 44.9], [10.15, 45.1], [9.85, 45.1], [9.85, 44.9]]]}, "properties": {"Title": "CARG Foglio 120 - CHIARI", "DOI": "ISPRA-CARG-120", "URL": "https://www.isprambiente.gov.it/Media/carg/120_CHIARI/Foglio.html", "Location": "Italy (CARG Grid)", "Type": "Official Map (1:50k)"}}, {"type": "Feature", "geometry": {"type": "Polygon", "coordinates": [[[9.85, 44.9], [10.15, 44.9], [10.15, 45.1], [9.85, 45.1], [9.85, 44.9]]]}, "properties": {"Title": "CARG Foglio 121 - SALO", "DOI": "ISPRA-CARG-121", "URL": "https://www.isprambiente.gov.it/Media/carg/121_SALO/Foglio.html", "Location": "Italy (CARG Grid)", "Type": "Official Map (1:50k)"}}, {"type": "Feature", "geometry": {"type": "Polygon", "coordinates": [[[9.85, 44.9], [10.15, 44.9], [10.15, 45.1], [9.85, 45.1], [9.85, 44.9]]]}, "properties": {"Title": "CARG Foglio 128 - VENEZIA", "DOI": "ISPRA-CARG-128", "URL": "https://www.isprambiente.gov.it/Media/carg/128_VENEZIA/Foglio.html", "Location": "Italy (CARG Grid)", "Type": "Official Map (1:50k)"}}, {"type": "Feature", "geometry": {"type": "Polygon", "coordinates": [[[9.85, 44.9], [10.15, 44.9], [10.15, 45.1], [9.85, 45.1], [9.85, 44.9]]]}, "properties": {"Title": "CARG Foglio 133 - VIMERCATE", "DOI": "ISPRA-CARG-133", "URL": "https://www.isprambiente.gov.it/Media/carg/133_VIMERCATE/Foglio.html", "Location": "Italy (CARG Grid)", "Type": "Official Map (1:50k)"}}, {"type": "Feature", "geometry": {"type": "Polygon", "coordinates": [[[9.85, 44.9], [10.15, 44.9], [10.15, 45.1], [9.85, 45.1], [9.85, 44.9]]]}, "properties": {"Title": "CARG Foglio 134 - CREMA", "DOI": "ISPRA-CARG-134", "URL": "https://www.isprambiente.gov.it/Media/carg/134_CREMA/Foglio.html", "Location": "Italy (CARG Grid)", "Type": "Official Map (1:50k)"}}, {"type": "Feature", "geometry": {"type": "Polygon", "coordinates": [[[9.85, 44.9], [10.15, 44.9], [10.15, 45.1], [9.85, 45.1], [9.85, 44.9]]]}, "properties": {"Title": "CARG Foglio 139 - GRADO", "DOI": "ISPRA-CARG-139", "URL": "https://www.isprambiente.gov.it/Media/carg/139_GRADO/Foglio.html", "Location": "Italy (CARG Grid)", "Type": "Official Map (1:50k)"}}, {"type": "Feature", "geometry": {"type": "Polygon", "coordinates": [[[9.85, 44.9], [10.15, 44.9], [10.15, 45.1], [9.85, 45.1], [9.85, 44.9]]]}, "properties": {"Title": "CARG Foglio 149 - GIACCIANO CON BARUCHELLA", "DOI": "ISPRA-CARG-149", "URL": "https://www.isprambiente.gov.it/Media/carg/149_GIACCIANO_CON_BARUCHELLA/Foglio.html", "Location": "Italy (CARG Grid)", "Type": "Official Map (1:50k)"}}, {"type": "Feature", "geometry": {"type": "Polygon", "coordinates": [[[9.85, 44.9], [10.15, 44.9], [10.15, 45.1], [9.85, 45.1], [9.85, 44.9]]]}, "properties": {"Title": "CARG Foglio 150 - MASSA FISCAGLIA", "DOI": "ISPRA-CARG-150", "URL": "https://www.isprambiente.gov.it/Media/carg/150_MASSA_FISCAGLIA/Foglio.html", "Location": "Italy (CARG Grid)", "Type": "Official Map (1:50k)"}}, {"type": "Feature", "geometry": {"type": "Polygon", "coordinates": [[[9.85, 44.9], [10.15, 44.9], [10.15, 45.1], [9.85, 45.1], [9.85, 44.9]]]}, "properties": {"Title": "CARG Foglio 151 - PORTO TOLLE", "DOI": "ISPRA-CARG-151", "URL": "https://www.isprambiente.gov.it/Media/carg/151_PORTO_TOLLE/Foglio.html", "Location": "Italy (CARG Grid)", "Type": "Official Map (1:50k)"}}, {"type": "Feature", "geometry": {"type": "Polygon", "coordinates": [[[9.85, 44.9], [10.15, 44.9], [10.15, 45.1], [9.85, 45.1], [9.85, 44.9]]]}, "properties": {"Title": "CARG Foglio 155 - TORINO OVEST", "DOI": "ISPRA-CARG-155", "URL": "https://www.isprambiente.gov.it/Media/carg/155_TORINO_OVEST/Foglio.html", "Location": "Italy (CARG Grid)", "Type": "Official Map (1:50k)"}}, {"type": "Feature", "geometry": {"type": "Polygon", "coordinates": [[[9.85, 44.9], [10.15, 44.9], [10.15, 45.1], [9.85, 45.1], [9.85, 44.9]]]}, "properties": {"Title": "CARG Foglio 156 - TORINO EST", "DOI": "ISPRA-CARG-156", "URL": "https://www.isprambiente.gov.it/Media/carg/156_TORINO_EST/Foglio.html", "Location": "Italy (CARG Grid)", "Type": "Official Map (1:50k)"}}, {"type": "Feature", "geometry": {"type": "Polygon", "coordinates": [[[9.85, 44.9], [10.15, 44.9], [10.15, 45.1], [9.85, 45.1], [9.85, 44.9]]]}, "properties": {"Title": "CARG Foglio 157 - TRINO", "DOI": "ISPRA-CARG-157", "URL": "https://www.isprambiente.gov.it/Media/carg/157_TRINO/Foglio.html", "Location": "Italy (CARG Grid)", "Type": "Official Map (1:50k)"}}, {"type": "Feature", "geometry": {"type": "Polygon", "coordinates": [[[9.85, 44.9], [10.15, 44.9], [10.15, 45.1], [9.85, 45.1], [9.85, 44.9]]]}, "properties": {"Title": "CARG Foglio 170 - LIDO DI VENEZIA", "DOI": "ISPRA-CARG-170", "URL": "https://www.isprambiente.gov.it/Media/carg/170_LIDO_DI_VENEZIA/Foglio.html", "Location": "Italy (CARG Grid)", "Type": "Official Map (1:50k)"}}, {"type": "Feature", "geometry": {"type": "Polygon", "coordinates": [[[9.85, 44.9], [10.15, 44.9], [10.15, 45.1], [9.85, 45.1], [9.85, 44.9]]]}, "properties": {"Title": "CARG Foglio 173 - CHIOGGIA", "DOI": "ISPRA-CARG-173", "URL": "https://www.isprambiente.gov.it/Media/carg/173_CHIOGGIA/Foglio.html", "Location": "Italy (CARG Grid)", "Type": "Official Map (1:50k)"}}, {"type": "Feature", "geometry": {"type": "Polygon", "coordinates": [[[9.85, 44.9], [10.15, 44.9], [10.15, 45.1], [9.85, 45.1], [9.85, 44.9]]]}, "properties": {"Title": "CARG Foglio 174 - ADRIA", "DOI": "ISPRA-CARG-174", "URL": "https://www.isprambiente.gov.it/Media/carg/174_ADRIA/Foglio.html", "Location": "Italy (CARG Grid)", "Type": "Official Map (1:50k)"}}, {"type": "Feature", "geometry": {"type": "Polygon", "coordinates": [[[9.85, 44.9], [10.15, 44.9], [10.15, 45.1], [9.85, 45.1], [9.85, 44.9]]]}, "properties": {"Title": "CARG Foglio 183 - CODIGORO", "DOI": "ISPRA-CARG-183", "URL": "https://www.isprambiente.gov.it/Media/carg/183_CODIGORO/Foglio.html", "Location": "Italy (CARG Grid)", "Type": "Official Map (1:50k)"}}, {"type": "Feature", "geometry": {"type": "Polygon", "coordinates": [[[9.85, 44.9], [10.15, 44.9], [10.15, 45.1], [9.85, 45.1], [9.85, 44.9]]]}, "properties": {"Title": "CARG Foglio 184 - COMACCHIO", "DOI": "ISPRA-CARG-184", "URL": "https://www.isprambiente.gov.it/Media/carg/184_COMACCHIO/Foglio.html", "Location": "Italy (CARG Grid)", "Type": "Official Map (1:50k)"}}, {"type": "Feature", "geometry": {"type": "Polygon", "coordinates": [[[9.85, 44.9], [10.15, 44.9], [10.15, 45.1], [9.85, 45.1], [9.85, 44.9]]]}, "properties": {"Title": "CARG Foglio 196 - CABELLA LIGURE", "DOI": "ISPRA-CARG-196", "URL": "https://www.isprambiente.gov.it/Media/carg/196_CABELLA_LIGURE/Foglio.html", "Location": "Italy (CARG Grid)", "Type": "Official Map (1:50k)"}}, {"type": "Feature", "geometry": {"type": "Polygon", "coordinates": [[[9.85, 44.9], [10.15, 44.9], [10.15, 45.1], [9.85, 45.1], [9.85, 44.9]]]}, "properties": {"Title": "CARG Foglio 197 - BOBBIO", "DOI": "ISPRA-CARG-197", "URL": "https://www.isprambiente.gov.it/Media/carg/197_BOBBIO/Foglio.html", "Location": "Italy (CARG Grid)", "Type": "Official Map (1:50k)"}}, {"type": "Feature", "geometry": {"type": "Polygon", "coordinates": [[[9.85, 44.9], [10.15, 44.9], [10.15, 45.1], [9.85, 45.1], [9.85, 44.9]]]}, "properties": {"Title": "CARG Foglio 213 - GENOVA", "DOI": "ISPRA-CARG-213", "URL": "https://www.isprambiente.gov.it/Media/carg/213_GENOVA/Foglio.html", "Location": "Italy (CARG Grid)", "Type": "Official Map (1:50k)"}}, {"type": "Feature", "geometry": {"type": "Polygon", "coordinates": [[[9.85, 44.9], [10.15, 44.9], [10.15, 45.1], [9.85, 45.1], [9.85, 44.9]]]}, "properties": {"Title": "CARG Foglio 214 - BARGALI", "DOI": "ISPRA-CARG-214", "URL": "https://www.isprambiente.gov.it/Media/carg/214_BARGALI/Foglio.html", "Location": "Italy (CARG Grid)", "Type": "Official Map (1:50k)"}}, {"type": "Feature", "geometry": {"type": "Polygon", "coordinates": [[[9.85, 44.9], [10.15, 44.9], [10.15, 45.1], [9.85, 45.1], [9.85, 44.9]]]}, "properties": {"Title": "CARG Foglio 218 - MODENA", "DOI": "ISPRA-CARG-218", "URL": "https://www.isprambiente.gov.it/Media/carg/218_MODENA/Foglio.html", "Location": "Italy (CARG Grid)", "Type": "Official Map (1:50k)"}}, {"type": "Feature", "geometry": {"type": "Polygon", "coordinates": [[[9.85, 44.9], [10.15, 44.9], [10.15, 45.1], [9.85, 45.1], [9.85, 44.9]]]}, "properties": {"Title": "CARG Foglio 220 - BOLOGNA", "DOI": "ISPRA-CARG-220", "URL": "https://www.isprambiente.gov.it/Media/carg/220_BOLOGNA/Foglio.html", "Location": "Italy (CARG Grid)", "Type": "Official Map (1:50k)"}}, {"type": "Feature", "geometry": {"type": "Polygon", "coordinates": [[[9.85, 44.9], [10.15, 44.9], [10.15, 45.1], [9.85, 45.1], [9.85, 44.9]]]}, "properties": {"Title": "CARG Foglio 221 - IMOLA", "DOI": "ISPRA-CARG-221", "URL": "https://www.isprambiente.gov.it/Media/carg/221_IMOLA/Foglio.html", "Location": "Italy (CARG Grid)", "Type": "Official Map (1:50k)"}}, {"type": "Feature", "geometry": {"type": "Polygon", "coordinates": [[[9.85, 44.9], [10.15, 44.9], [10.15, 45.1], [9.85, 45.1], [9.85, 44.9]]]}, "properties": {"Title": "CARG Foglio 222 - LUGO", "DOI": "ISPRA-CARG-222", "URL": "https://www.isprambiente.gov.it/Media/carg/222_LUGO/Foglio.html", "Location": "Italy (CARG Grid)", "Type": "Official Map (1:50k)"}}, {"type": "Feature", "geometry": {"type": "Polygon", "coordinates": [[[9.85, 44.9], [10.15, 44.9], [10.15, 45.1], [9.85, 45.1], [9.85, 44.9]]]}, "properties": {"Title": "CARG Foglio 223 - RAVENNA", "DOI": "ISPRA-CARG-223", "URL": "https://www.isprambiente.gov.it/Media/carg/223_RAVENNA/Foglio.html", "Location": "Italy (CARG Grid)", "Type": "Official Map (1:50k)"}}, {"type": "Feature", "geometry": {"type": "Polygon", "coordinates": [[[11.35, 43.4], [11.65, 43.4], [11.65, 43.6], [11.35, 43.6], [11.35, 43.4]]]}, "properties": {"Title": "CARG Foglio 253 - MARRADI", "DOI": "ISPRA-CARG-253", "URL": "https://www.isprambiente.gov.it/Media/carg/253_MARRADI/Foglio.html", "Location": "Italy (CARG Grid)", "Type": "Official Map (1:50k)"}}, {"type": "Feature", "geometry": {"type": "Polygon", "coordinates": [[[11.35, 43.4], [11.65, 43.4], [11.65, 43.6], [11.35, 43.6], [11.35, 43.4]]]}, "properties": {"Title": "CARG Foglio 254 - MODIGLIANA", "DOI": "ISPRA-CARG-254", "URL": "https://www.isprambiente.gov.it/Media/carg/254_MODIGLIANA/Foglio.html", "Location": "Italy (CARG Grid)", "Type": "Official Map (1:50k)"}}, {"type": "Feature", "geometry": {"type": "Polygon", "coordinates": [[[11.35, 43.4], [11.65, 43.4], [11.65, 43.6], [11.35, 43.6], [11.35, 43.4]]]}, "properties": {"Title": "CARG Foglio 255 - FAENZA", "DOI": "ISPRA-CARG-255", "URL": "https://www.isprambiente.gov.it/Media/carg/255_FAENZA/Foglio.html", "Location": "Italy (CARG Grid)", "Type": "Official Map (1:50k)"}}, {"type": "Feature", "geometry": {"type": "Polygon", "coordinates": [[[11.35, 43.4], [11.65, 43.4], [11.65, 43.6], [11.35, 43.6], [11.35, 43.4]]]}, "properties": {"Title": "CARG Foglio 256 - RIMINI", "DOI": "ISPRA-CARG-256", "URL": "https://www.isprambiente.gov.it/Media/carg/256_RIMINI/Foglio.html", "Location": "Italy (CARG Grid)", "Type": "Official Map (1:50k)"}}, {"type": "Feature", "geometry": {"type": "Polygon", "coordinates": [[[11.35, 43.4], [11.65, 43.4], [11.65, 43.6], [11.35, 43.6], [11.35, 43.4]]]}, "properties": {"Title": "CARG Foglio 262 - PICA", "DOI": "ISPRA-CARG-262", "URL": "https://www.isprambiente.gov.it/Media/carg/262_PICA/Foglio.html", "Location": "Italy (CARG Grid)", "Type": "Official Map (1:50k)"}}, {"type": "Feature", "geometry": {"type": "Polygon", "coordinates": [[[11.35, 43.4], [11.65, 43.4], [11.65, 43.6], [11.35, 43.6], [11.35, 43.4]]]}, "properties": {"Title": "CARG Foglio 263 - FIRENZE", "DOI": "ISPRA-CARG-263", "URL": "https://www.isprambiente.gov.it/Media/carg/263_FIRENZE/Foglio.html", "Location": "Italy (CARG Grid)", "Type": "Official Map (1:50k)"}}, {"type": "Feature", "geometry": {"type": "Polygon", "coordinates": [[[11.35, 43.4], [11.65, 43.4], [11.65, 43.6], [11.35, 43.6], [11.35, 43.4]]]}, "properties": {"Title": "CARG Foglio 264 - BORGO SAN LORENZO", "DOI": "ISPRA-CARG-264", "URL": "https://www.isprambiente.gov.it/Media/carg/264_BORGO_SAN_LORENZO/Foglio.html", "Location": "Italy (CARG Grid)", "Type": "Official Map (1:50k)"}}, {"type": "Feature", "geometry": {"type": "Polygon", "coordinates": [[[11.35, 43.4], [11.65, 43.4], [11.65, 43.6], [11.35, 43.6], [11.35, 43.4]]]}, "properties": {"Title": "CARG Foglio 265 - SAN MARINO", "DOI": "ISPRA-CARG-265", "URL": "https://www.isprambiente.gov.it/Media/carg/265_SAN_MARINO/Foglio.html", "Location": "Italy (CARG Grid)", "Type": "Official Map (1:50k)"}}, {"type": "Feature", "geometry": {"type": "Polygon", "coordinates": [[[11.35, 43.4], [11.65, 43.4], [11.65, 43.6], [11.35, 43.6], [11.35, 43.4]]]}, "properties": {"Title": "CARG Foglio 266 - MERCATO SARACENO", "DOI": "ISPRA-CARG-266", "URL": "https://www.isprambiente.gov.it/Media/carg/266_MERCATO_SARACENO/Foglio.html", "Location": "Italy (CARG Grid)", "Type": "Official Map (1:50k)"}}, {"type": "Feature", "geometry": {"type": "Polygon", "coordinates": [[[11.35, 43.4], [11.65, 43.4], [11.65, 43.6], [11.35, 43.6], [11.35, 43.4]]]}, "properties": {"Title": "CARG Foglio 267 - PESARO", "DOI": "ISPRA-CARG-267", "URL": "https://www.isprambiente.gov.it/Media/carg/267_PESARO/Foglio.html", "Location": "Italy (CARG Grid)", "Type": "Official Map (1:50k)"}}, {"type": "Feature", "geometry": {"type": "Polygon", "coordinates": [[[11.35, 43.4], [11.65, 43.4], [11.65, 43.6], [11.35, 43.6], [11.35, 43.4]]]}, "properties": {"Title": "CARG Foglio 274 - VOLTERRA", "DOI": "ISPRA-CARG-274", "URL": "https://www.isprambiente.gov.it/Media/carg/274_VOLTERRA/Foglio.html", "Location": "Italy (CARG Grid)", "Type": "Official Map (1:50k)"}}, {"type": "Feature", "geometry": {"type": "Polygon", "coordinates": [[[11.35, 43.4], [11.65, 43.4], [11.65, 43.6], [11.35, 43.6], [11.35, 43.4]]]}, "properties": {"Title": "CARG Foglio 275 - POGGIBONSI", "DOI": "ISPRA-CARG-275", "URL": "https://www.isprambiente.gov.it/Media/carg/275_POGGIBONSI/Foglio.html", "Location": "Italy (CARG Grid)", "Type": "Official Map (1:50k)"}}, {"type": "Feature", "geometry": {"type": "Polygon", "coordinates": [[[11.35, 43.4], [11.65, 43.4], [11.65, 43.6], [11.35, 43.6], [11.35, 43.4]]]}, "properties": {"Title": "CARG Foglio 276 - FIGLINE VALDARNO", "DOI": "ISPRA-CARG-276", "URL": "https://www.isprambiente.gov.it/Media/carg/276_FIGLINE_VALDARNO/Foglio.html", "Location": "Italy (CARG Grid)", "Type": "Official Map (1:50k)"}}, {"type": "Feature", "geometry": {"type": "Polygon", "coordinates": [[[11.35, 43.4], [11.65, 43.4], [11.65, 43.6], [11.35, 43.6], [11.35, 43.4]]]}, "properties": {"Title": "CARG Foglio 280 - FOSSOMBRONE", "DOI": "ISPRA-CARG-280", "URL": "https://www.isprambiente.gov.it/Media/carg/280_FOSSOMBRONE/Foglio.html", "Location": "Italy (CARG Grid)", "Type": "Official Map (1:50k)"}}, {"type": "Feature", "geometry": {"type": "Polygon", "coordinates": [[[11.35, 43.4], [11.65, 43.4], [11.65, 43.6], [11.35, 43.6], [11.35, 43.4]]]}, "properties": {"Title": "CARG Foglio 281 - JESI", "DOI": "ISPRA-CARG-281", "URL": "https://www.isprambiente.gov.it/Media/carg/281_JESI/Foglio.html", "Location": "Italy (CARG Grid)", "Type": "Official Map (1:50k)"}}, {"type": "Feature", "geometry": {"type": "Polygon", "coordinates": [[[11.35, 43.4], [11.65, 43.4], [11.65, 43.6], [11.35, 43.6], [11.35, 43.4]]]}, "properties": {"Title": "CARG Foglio 282 - ANCONA", "DOI": "ISPRA-CARG-282", "URL": "https://www.isprambiente.gov.it/Media/carg/282_ANCONA/Foglio.html", "Location": "Italy (CARG Grid)", "Type": "Official Map (1:50k)"}}, {"type": "Feature", "geometry": {"type": "Polygon", "coordinates": [[[11.35, 43.4], [11.65, 43.4], [11.65, 43.6], [11.35, 43.6], [11.35, 43.4]]]}, "properties": {"Title": "CARG Foglio 283 - NUMANA", "DOI": "ISPRA-CARG-283", "URL": "https://www.isprambiente.gov.it/Media/carg/283_NUMANA/Foglio.html", "Location": "Italy (CARG Grid)", "Type": "Official Map (1:50k)"}}, {"type": "Feature", "geometry": {"type": "Polygon", "coordinates": [[[11.35, 43.4], [11.65, 43.4], [11.65, 43.6], [11.35, 43.6], [11.35, 43.4]]]}, "properties": {"Title": "CARG Foglio 288 - AREZZO", "DOI": "ISPRA-CARG-288", "URL": "https://www.isprambiente.gov.it/Media/carg/288_AREZZO/Foglio.html", "Location": "Italy (CARG Grid)", "Type": "Official Map (1:50k)"}}, {"type": "Feature", "geometry": {"type": "Polygon", "coordinates": [[[11.35, 43.4], [11.65, 43.4], [11.65, 43.6], [11.35, 43.6], [11.35, 43.4]]]}, "properties": {"Title": "CARG Foglio 289 - CITTA DI CASTELLO", "DOI": "ISPRA-CARG-289", "URL": "https://www.isprambiente.gov.it/Media/carg/289_CITTA_DI_CASTELLO/Foglio.html", "Location": "Italy (CARG Grid)", "Type": "Official Map (1:50k)"}}, {"type": "Feature", "geometry": {"type": "Polygon", "coordinates": [[[11.35, 43.4], [11.65, 43.4], [11.65, 43.6], [11.35, 43.6], [11.35, 43.4]]]}, "properties": {"Title": "CARG Foglio 290 - CAGLI", "DOI": "ISPRA-CARG-290", "URL": "https://www.isprambiente.gov.it/Media/carg/290_CAGLI/Foglio.html", "Location": "Italy (CARG Grid)", "Type": "Official Map (1:50k)"}}, {"type": "Feature", "geometry": {"type": "Polygon", "coordinates": [[[11.35, 43.4], [11.65, 43.4], [11.65, 43.6], [11.35, 43.6], [11.35, 43.4]]]}, "properties": {"Title": "CARG Foglio 291 - PERGOLA", "DOI": "ISPRA-CARG-291", "URL": "https://www.isprambiente.gov.it/Media/carg/291_PERGOLA/Foglio.html", "Location": "Italy (CARG Grid)", "Type": "Official Map (1:50k)"}}, {"type": "Feature", "geometry": {"type": "Polygon", "coordinates": [[[11.35, 43.4], [11.65, 43.4], [11.65, 43.6], [11.35, 43.6], [11.35, 43.4]]]}, "properties": {"Title": "CARG Foglio 296 - SIENA", "DOI": "ISPRA-CARG-296", "URL": "https://www.isprambiente.gov.it/Media/carg/296_SIENA/Foglio.html", "Location": "Italy (CARG Grid)", "Type": "Official Map (1:50k)"}}, {"type": "Feature", "geometry": {"type": "Polygon", "coordinates": [[[11.35, 43.4], [11.65, 43.4], [11.65, 43.6], [11.35, 43.6], [11.35, 43.4]]]}, "properties": {"Title": "CARG Foglio 297 - ASCIANO", "DOI": "ISPRA-CARG-297", "URL": "https://www.isprambiente.gov.it/Media/carg/297_ASCIANO/Foglio.html", "Location": "Italy (CARG Grid)", "Type": "Official Map (1:50k)"}}, {"type": "Feature", "geometry": {"type": "Polygon", "coordinates": [[[11.35, 43.4], [11.65, 43.4], [11.65, 43.6], [11.35, 43.6], [11.35, 43.4]]]}, "properties": {"Title": "CARG Foglio 299 - PERUGIA", "DOI": "ISPRA-CARG-299", "URL": "https://www.isprambiente.gov.it/Media/carg/299_PERUGIA/Foglio.html", "Location": "Italy (CARG Grid)", "Type": "Official Map (1:50k)"}}, {"type": "Feature", "geometry": {"type": "Polygon", "coordinates": [[[12.85, 41.9], [13.15, 41.9], [13.15, 42.1], [12.85, 42.1], [12.85, 41.9]]]}, "properties": {"Title": "CARG Foglio 300 - GUBBIO", "DOI": "ISPRA-CARG-300", "URL": "https://www.isprambiente.gov.it/Media/carg/300_GUBBIO/Foglio.html", "Location": "Italy (CARG Grid)", "Type": "Official Map (1:50k)"}}, {"type": "Feature", "geometry": {"type": "Polygon", "coordinates": [[[12.85, 41.9], [13.15, 41.9], [13.15, 42.1], [12.85, 42.1], [12.85, 41.9]]]}, "properties": {"Title": "CARG Foglio 301 - FABRIANO", "DOI": "ISPRA-CARG-301", "URL": "https://www.isprambiente.gov.it/Media/carg/301_FABRIANO/Foglio.html", "Location": "Italy (CARG Grid)", "Type": "Official Map (1:50k)"}}, {"type": "Feature", "geometry": {"type": "Polygon", "coordinates": [[[12.85, 41.9], [13.15, 41.9], [13.15, 42.1], [12.85, 42.1], [12.85, 41.9]]]}, "properties": {"Title": "CARG Foglio 302 - TOLENTINO", "DOI": "ISPRA-CARG-302", "URL": "https://www.isprambiente.gov.it/Media/carg/302_TOLENTINO/Foglio.html", "Location": "Italy (CARG Grid)", "Type": "Official Map (1:50k)"}}, {"type": "Feature", "geometry": {"type": "Polygon", "coordinates": [[[12.85, 41.9], [13.15, 41.9], [13.15, 42.1], [12.85, 42.1], [12.85, 41.9]]]}, "properties": {"Title": "CARG Foglio 303 - MACERATA", "DOI": "ISPRA-CARG-303", "URL": "https://www.isprambiente.gov.it/Media/carg/303_MACERATA/Foglio.html", "Location": "Italy (CARG Grid)", "Type": "Official Map (1:50k)"}}, {"type": "Feature", "geometry": {"type": "Polygon", "coordinates": [[[12.85, 41.9], [13.15, 41.9], [13.15, 42.1], [12.85, 42.1], [12.85, 41.9]]]}, "properties": {"Title": "CARG Foglio 304 - CIVITANOVA MARCHE", "DOI": "ISPRA-CARG-304", "URL": "https://www.isprambiente.gov.it/Media/carg/304_CIVITANOVA_MARCHE/Foglio.html", "Location": "Italy (CARG Grid)", "Type": "Official Map (1:50k)"}}, {"type": "Feature", "geometry": {"type": "Polygon", "coordinates": [[[12.85, 41.9], [13.15, 41.9], [13.15, 42.1], [12.85, 42.1], [12.85, 41.9]]]}, "properties": {"Title": "CARG Foglio 308 - MASSA MARITTIMA", "DOI": "ISPRA-CARG-308", "URL": "https://www.isprambiente.gov.it/Media/carg/308_MASSA_MARITTIMA/Foglio.html", "Location": "Italy (CARG Grid)", "Type": "Official Map (1:50k)"}}, {"type": "Feature", "geometry": {"type": "Polygon", "coordinates": [[[12.85, 41.9], [13.15, 41.9], [13.15, 42.1], [12.85, 42.1], [12.85, 41.9]]]}, "properties": {"Title": "CARG Foglio 309 - ROCCASTRADA", "DOI": "ISPRA-CARG-309", "URL": "https://www.isprambiente.gov.it/Media/carg/309_ROCCASTRADA/Foglio.html", "Location": "Italy (CARG Grid)", "Type": "Official Map (1:50k)"}}, {"type": "Feature", "geometry": {"type": "Polygon", "coordinates": [[[12.85, 41.9], [13.15, 41.9], [13.15, 42.1], [12.85, 42.1], [12.85, 41.9]]]}, "properties": {"Title": "CARG Foglio 315 - ORVIETO", "DOI": "ISPRA-CARG-315", "URL": "https://www.isprambiente.gov.it/Media/carg/315_ORVIETO/Foglio.html", "Location": "Italy (CARG Grid)", "Type": "Official Map (1:50k)"}}, {"type": "Feature", "geometry": {"type": "Polygon", "coordinates": [[[12.85, 41.9], [13.15, 41.9], [13.15, 42.1], [12.85, 42.1], [12.85, 41.9]]]}, "properties": {"Title": "CARG Foglio 316 - MONTECASTRILLI", "DOI": "ISPRA-CARG-316", "URL": "https://www.isprambiente.gov.it/Media/carg/316_MONTECASTRILLI/Foglio.html", "Location": "Italy (CARG Grid)", "Type": "Official Map (1:50k)"}}, {"type": "Feature", "geometry": {"type": "Polygon", "coordinates": [[[12.85, 41.9], [13.15, 41.9], [13.15, 42.1], [12.85, 42.1], [12.85, 41.9]]]}, "properties": {"Title": "CARG Foglio 317 - FOLIGNO", "DOI": "ISPRA-CARG-317", "URL": "https://www.isprambiente.gov.it/Media/carg/317_FOLIGNO/Foglio.html", "Location": "Italy (CARG Grid)", "Type": "Official Map (1:50k)"}}, {"type": "Feature", "geometry": {"type": "Polygon", "coordinates": [[[12.85, 41.9], [13.15, 41.9], [13.15, 42.1], [12.85, 42.1], [12.85, 41.9]]]}, "properties": {"Title": "CARG Foglio 318 - CAMERINO", "DOI": "ISPRA-CARG-318", "URL": "https://www.isprambiente.gov.it/Media/carg/318_CAMERINO/Foglio.html", "Location": "Italy (CARG Grid)", "Type": "Official Map (1:50k)"}}, {"type": "Feature", "geometry": {"type": "Polygon", "coordinates": [[[12.85, 41.9], [13.15, 41.9], [13.15, 42.1], [12.85, 42.1], [12.85, 41.9]]]}, "properties": {"Title": "CARG Foglio 319 - FERMO", "DOI": "ISPRA-CARG-319", "URL": "https://www.isprambiente.gov.it/Media/carg/319_FERMO/Foglio.html", "Location": "Italy (CARG Grid)", "Type": "Official Map (1:50k)"}}, {"type": "Feature", "geometry": {"type": "Polygon", "coordinates": [[[12.85, 41.9], [13.15, 41.9], [13.15, 42.1], [12.85, 42.1], [12.85, 41.9]]]}, "properties": {"Title": "CARG Foglio 324 - MONTEFIASCONE", "DOI": "ISPRA-CARG-324", "URL": "https://www.isprambiente.gov.it/Media/carg/324_MONTEFIASCONE/Foglio.html", "Location": "Italy (CARG Grid)", "Type": "Official Map (1:50k)"}}, {"type": "Feature", "geometry": {"type": "Polygon", "coordinates": [[[12.85, 41.9], [13.15, 41.9], [13.15, 42.1], [12.85, 42.1], [12.85, 41.9]]]}, "properties": {"Title": "CARG Foglio 325 - VITERBO", "DOI": "ISPRA-CARG-325", "URL": "https://www.isprambiente.gov.it/Media/carg/325_VITERBO/Foglio.html", "Location": "Italy (CARG Grid)", "Type": "Official Map (1:50k)"}}, {"type": "Feature", "geometry": {"type": "Polygon", "coordinates": [[[12.85, 41.9], [13.15, 41.9], [13.15, 42.1], [12.85, 42.1], [12.85, 41.9]]]}, "properties": {"Title": "CARG Foglio 326 - NARNI", "DOI": "ISPRA-CARG-326", "URL": "https://www.isprambiente.gov.it/Media/carg/326_NARNI/Foglio.html", "Location": "Italy (CARG Grid)", "Type": "Official Map (1:50k)"}}, {"type": "Feature", "geometry": {"type": "Polygon", "coordinates": [[[12.85, 41.9], [13.15, 41.9], [13.15, 42.1], [12.85, 42.1], [12.85, 41.9]]]}, "properties": {"Title": "CARG Foglio 327 - TERNI", "DOI": "ISPRA-CARG-327", "URL": "https://www.isprambiente.gov.it/Media/carg/327_TERNI/Foglio.html", "Location": "Italy (CARG Grid)", "Type": "Official Map (1:50k)"}}, {"type": "Feature", "geometry": {"type": "Polygon", "coordinates": [[[12.85, 41.9], [13.15, 41.9], [13.15, 42.1], [12.85, 42.1], [12.85, 41.9]]]}, "properties": {"Title": "CARG Foglio 328 - SPOLETO", "DOI": "ISPRA-CARG-328", "URL": "https://www.isprambiente.gov.it/Media/carg/328_SPOLETO/Foglio.html", "Location": "Italy (CARG Grid)", "Type": "Official Map (1:50k)"}}, {"type": "Feature", "geometry": {"type": "Polygon", "coordinates": [[[12.85, 41.9], [13.15, 41.9], [13.15, 42.1], [12.85, 42.1], [12.85, 41.9]]]}, "properties": {"Title": "CARG Foglio 329 - ASCOLI PICENO", "DOI": "ISPRA-CARG-329", "URL": "https://www.isprambiente.gov.it/Media/carg/329_ASCOLI_PICENO/Foglio.html", "Location": "Italy (CARG Grid)", "Type": "Official Map (1:50k)"}}, {"type": "Feature", "geometry": {"type": "Polygon", "coordinates": [[[12.85, 41.9], [13.15, 41.9], [13.15, 42.1], [12.85, 42.1], [12.85, 41.9]]]}, "properties": {"Title": "CARG Foglio 330 - SAN BENEDETTO DEL TRONTO", "DOI": "ISPRA-CARG-330", "URL": "https://www.isprambiente.gov.it/Media/carg/330_SAN_BENEDETTO_DEL_TRONTO/Foglio.html", "Location": "Italy (CARG Grid)", "Type": "Official Map (1:50k)"}}, {"type": "Feature", "geometry": {"type": "Polygon", "coordinates": [[[12.85, 41.9], [13.15, 41.9], [13.15, 42.1], [12.85, 42.1], [12.85, 41.9]]]}, "properties": {"Title": "CARG Foglio 337 - SORIANO NEL CIMINO", "DOI": "ISPRA-CARG-337", "URL": "https://www.isprambiente.gov.it/Media/carg/337_SORIANO_NEL_CIMINO/Foglio.html", "Location": "Italy (CARG Grid)", "Type": "Official Map (1:50k)"}}, {"type": "Feature", "geometry": {"type": "Polygon", "coordinates": [[[12.85, 41.9], [13.15, 41.9], [13.15, 42.1], [12.85, 42.1], [12.85, 41.9]]]}, "properties": {"Title": "CARG Foglio 339 - RIETI", "DOI": "ISPRA-CARG-339", "URL": "https://www.isprambiente.gov.it/Media/carg/339_RIETI/Foglio.html", "Location": "Italy (CARG Grid)", "Type": "Official Map (1:50k)"}}, {"type": "Feature", "geometry": {"type": "Polygon", "coordinates": [[[12.85, 41.9], [13.15, 41.9], [13.15, 42.1], [12.85, 42.1], [12.85, 41.9]]]}, "properties": {"Title": "CARG Foglio 346 - TARQUINIA", "DOI": "ISPRA-CARG-346", "URL": "https://www.isprambiente.gov.it/Media/carg/346_TARQUINIA/Foglio.html", "Location": "Italy (CARG Grid)", "Type": "Official Map (1:50k)"}}, {"type": "Feature", "geometry": {"type": "Polygon", "coordinates": [[[12.85, 41.9], [13.15, 41.9], [13.15, 42.1], [12.85, 42.1], [12.85, 41.9]]]}, "properties": {"Title": "CARG Foglio 347 - ROMA", "DOI": "ISPRA-CARG-347", "URL": "https://www.isprambiente.gov.it/Media/carg/347_ROMA/Foglio.html", "Location": "Italy (CARG Grid)", "Type": "Official Map (1:50k)"}}, {"type": "Feature", "geometry": {"type": "Polygon", "coordinates": [[[12.85, 41.9], [13.15, 41.9], [13.15, 42.1], [12.85, 42.1], [12.85, 41.9]]]}, "properties": {"Title": "CARG Foglio 348 - ANTRODOCO", "DOI": "ISPRA-CARG-348", "URL": "https://www.isprambiente.gov.it/Media/carg/348_ANTRODOCO/Foglio.html", "Location": "Italy (CARG Grid)", "Type": "Official Map (1:50k)"}}, {"type": "Feature", "geometry": {"type": "Polygon", "coordinates": [[[12.85, 41.9], [13.15, 41.9], [13.15, 42.1], [12.85, 42.1], [12.85, 41.9]]]}, "properties": {"Title": "CARG Foglio 349 - GRAN SASSO D'ITALIA", "DOI": "ISPRA-CARG-349", "URL": "https://www.isprambiente.gov.it/Media/carg/349_GRAN_SASSO_DITALIA/Foglio.html", "Location": "Italy (CARG Grid)", "Type": "Official Map (1:50k)"}}, {"type": "Feature", "geometry": {"type": "Polygon", "coordinates": [[[12.85, 41.9], [13.15, 41.9], [13.15, 42.1], [12.85, 42.1], [12.85, 41.9]]]}, "properties": {"Title": "CARG Foglio 350 - TERAMO", "DOI": "ISPRA-CARG-350", "URL": "https://www.isprambiente.gov.it/Media/carg/350_TERAMO/Foglio.html", "Location": "Italy (CARG Grid)", "Type": "Official Map (1:50k)"}}, {"type": "Feature", "geometry": {"type": "Polygon", "coordinates": [[[12.85, 41.9], [13.15, 41.9], [13.15, 42.1], [12.85, 42.1], [12.85, 41.9]]]}, "properties": {"Title": "CARG Foglio 351 - PESCARA", "DOI": "ISPRA-CARG-351", "URL": "https://www.isprambiente.gov.it/Media/carg/351_PESCARA/Foglio.html", "Location": "Italy (CARG Grid)", "Type": "Official Map (1:50k)"}}, {"type": "Feature", "geometry": {"type": "Polygon", "coordinates": [[[12.85, 41.9], [13.15, 41.9], [13.15, 42.1], [12.85, 42.1], [12.85, 41.9]]]}, "properties": {"Title": "CARG Foglio 355 - RONCIGLIONE", "DOI": "ISPRA-CARG-355", "URL": "https://www.isprambiente.gov.it/Media/carg/355_RONCIGLIONE/Foglio.html", "Location": "Italy (CARG Grid)", "Type": "Official Map (1:50k)"}}, {"type": "Feature", "geometry": {"type": "Polygon", "coordinates": [[[12.85, 41.9], [13.15, 41.9], [13.15, 42.1], [12.85, 42.1], [12.85, 41.9]]]}, "properties": {"Title": "CARG Foglio 357 - CIVITAVECCHIA", "DOI": "ISPRA-CARG-357", "URL": "https://www.isprambiente.gov.it/Media/carg/357_CIVITAVECCHIA/Foglio.html", "Location": "Italy (CARG Grid)", "Type": "Official Map (1:50k)"}}, {"type": "Feature", "geometry": {"type": "Polygon", "coordinates": [[[12.85, 41.9], [13.15, 41.9], [13.15, 42.1], [12.85, 42.1], [12.85, 41.9]]]}, "properties": {"Title": "CARG Foglio 358 - BRACCIANO", "DOI": "ISPRA-CARG-358", "URL": "https://www.isprambiente.gov.it/Media/carg/358_BRACCIANO/Foglio.html", "Location": "Italy (CARG Grid)", "Type": "Official Map (1:50k)"}}, {"type": "Feature", "geometry": {"type": "Polygon", "coordinates": [[[12.85, 41.9], [13.15, 41.9], [13.15, 42.1], [12.85, 42.1], [12.85, 41.9]]]}, "properties": {"Title": "CARG Foglio 359 - L'AQUILA", "DOI": "ISPRA-CARG-359", "URL": "https://www.isprambiente.gov.it/Media/carg/359_LAQUILA/Foglio.html", "Location": "Italy (CARG Grid)", "Type": "Official Map (1:50k)"}}, {"type": "Feature", "geometry": {"type": "Polygon", "coordinates": [[[12.85, 41.9], [13.15, 41.9], [13.15, 42.1], [12.85, 42.1], [12.85, 41.9]]]}, "properties": {"Title": "CARG Foglio 360 - TORRE DE PASSERI", "DOI": "ISPRA-CARG-360", "URL": "https://www.isprambiente.gov.it/Media/carg/360_TORRE_DE_PASSERI/Foglio.html", "Location": "Italy (CARG Grid)", "Type": "Official Map (1:50k)"}}, {"type": "Feature", "geometry": {"type": "Polygon", "coordinates": [[[12.85, 41.9], [13.15, 41.9], [13.15, 42.1], [12.85, 42.1], [12.85, 41.9]]]}, "properties": {"Title": "CARG Foglio 361 - CHIETI", "DOI": "ISPRA-CARG-361", "URL": "https://www.isprambiente.gov.it/Media/carg/361_CHIETI/Foglio.html", "Location": "Italy (CARG Grid)", "Type": "Official Map (1:50k)"}}, {"type": "Feature", "geometry": {"type": "Polygon", "coordinates": [[[12.85, 41.9], [13.15, 41.9], [13.15, 42.1], [12.85, 42.1], [12.85, 41.9]]]}, "properties": {"Title": "CARG Foglio 362 - ORTONA", "DOI": "ISPRA-CARG-362", "URL": "https://www.isprambiente.gov.it/Media/carg/362_ORTONA/Foglio.html", "Location": "Italy (CARG Grid)", "Type": "Official Map (1:50k)"}}, {"type": "Feature", "geometry": {"type": "Polygon", "coordinates": [[[12.85, 41.9], [13.15, 41.9], [13.15, 42.1], [12.85, 42.1], [12.85, 41.9]]]}, "properties": {"Title": "CARG Foglio 364 - BRACCIANO", "DOI": "ISPRA-CARG-364", "URL": "https://www.isprambiente.gov.it/Media/carg/364_BRACCIANO/Foglio.html", "Location": "Italy (CARG Grid)", "Type": "Official Map (1:50k)"}}, {"type": "Feature", "geometry": {"type": "Polygon", "coordinates": [[[12.85, 41.9], [13.15, 41.9], [13.15, 42.1], [12.85, 42.1], [12.85, 41.9]]]}, "properties": {"Title": "CARG Foglio 365 - MONTEROTONDO", "DOI": "ISPRA-CARG-365", "URL": "https://www.isprambiente.gov.it/Media/carg/365_MONTEROTONDO/Foglio.html", "Location": "Italy (CARG Grid)", "Type": "Official Map (1:50k)"}}, {"type": "Feature", "geometry": {"type": "Polygon", "coordinates": [[[12.85, 41.9], [13.15, 41.9], [13.15, 42.1], [12.85, 42.1], [12.85, 41.9]]]}, "properties": {"Title": "CARG Foglio 366 - AVEZZANO", "DOI": "ISPRA-CARG-366", "URL": "https://www.isprambiente.gov.it/Media/carg/366_AVEZZANO/Foglio.html", "Location": "Italy (CARG Grid)", "Type": "Official Map (1:50k)"}}, {"type": "Feature", "geometry": {"type": "Polygon", "coordinates": [[[12.85, 41.9], [13.15, 41.9], [13.15, 42.1], [12.85, 42.1], [12.85, 41.9]]]}, "properties": {"Title": "CARG Foglio 367 - SULMONA", "DOI": "ISPRA-CARG-367", "URL": "https://www.isprambiente.gov.it/Media/carg/367_SULMONA/Foglio.html", "Location": "Italy (CARG Grid)", "Type": "Official Map (1:50k)"}}, {"type": "Feature", "geometry": {"type": "Polygon", "coordinates": [[[12.85, 41.9], [13.15, 41.9], [13.15, 42.1], [12.85, 42.1], [12.85, 41.9]]]}, "properties": {"Title": "CARG Foglio 368 - ATESSA", "DOI": "ISPRA-CARG-368", "URL": "https://www.isprambiente.gov.it/Media/carg/368_ATESSA/Foglio.html", "Location": "Italy (CARG Grid)", "Type": "Official Map (1:50k)"}}, {"type": "Feature", "geometry": {"type": "Polygon", "coordinates": [[[12.85, 41.9], [13.15, 41.9], [13.15, 42.1], [12.85, 42.1], [12.85, 41.9]]]}, "properties": {"Title": "CARG Foglio 373 - CERVETERI", "DOI": "ISPRA-CARG-373", "URL": "https://www.isprambiente.gov.it/Media/carg/373_CERVETERI/Foglio.html", "Location": "Italy (CARG Grid)", "Type": "Official Map (1:50k)"}}, {"type": "Feature", "geometry": {"type": "Polygon", "coordinates": [[[12.85, 41.9], [13.15, 41.9], [13.15, 42.1], [12.85, 42.1], [12.85, 41.9]]]}, "properties": {"Title": "CARG Foglio 374 - ROMA", "DOI": "ISPRA-CARG-374", "URL": "https://www.isprambiente.gov.it/Media/carg/374_ROMA/Foglio.html", "Location": "Italy (CARG Grid)", "Type": "Official Map (1:50k)"}}, {"type": "Feature", "geometry": {"type": "Polygon", "coordinates": [[[12.85, 41.9], [13.15, 41.9], [13.15, 42.1], [12.85, 42.1], [12.85, 41.9]]]}, "properties": {"Title": "CARG Foglio 375 - TIVOLI", "DOI": "ISPRA-CARG-375", "URL": "https://www.isprambiente.gov.it/Media/carg/375_TIVOLI/Foglio.html", "Location": "Italy (CARG Grid)", "Type": "Official Map (1:50k)"}}, {"type": "Feature", "geometry": {"type": "Polygon", "coordinates": [[[12.85, 41.9], [13.15, 41.9], [13.15, 42.1], [12.85, 42.1], [12.85, 41.9]]]}, "properties": {"Title": "CARG Foglio 376 - SUBIACO", "DOI": "ISPRA-CARG-376", "URL": "https://www.isprambiente.gov.it/Media/carg/376_SUBIACO/Foglio.html", "Location": "Italy (CARG Grid)", "Type": "Official Map (1:50k)"}}, {"type": "Feature", "geometry": {"type": "Polygon", "coordinates": [[[12.85, 41.9], [13.15, 41.9], [13.15, 42.1], [12.85, 42.1], [12.85, 41.9]]]}, "properties": {"Title": "CARG Foglio 379 - TERMOLI", "DOI": "ISPRA-CARG-379", "URL": "https://www.isprambiente.gov.it/Media/carg/379_TERMOLI/Foglio.html", "Location": "Italy (CARG Grid)", "Type": "Official Map (1:50k)"}}, {"type": "Feature", "geometry": {"type": "Polygon", "coordinates": [[[12.85, 41.9], [13.15, 41.9], [13.15, 42.1], [12.85, 42.1], [12.85, 41.9]]]}, "properties": {"Title": "CARG Foglio 386 - FIUMICINO", "DOI": "ISPRA-CARG-386", "URL": "https://www.isprambiente.gov.it/Media/carg/386_FIUMICINO/Foglio.html", "Location": "Italy (CARG Grid)", "Type": "Official Map (1:50k)"}}, {"type": "Feature", "geometry": {"type": "Polygon", "coordinates": [[[12.85, 41.9], [13.15, 41.9], [13.15, 42.1], [12.85, 42.1], [12.85, 41.9]]]}, "properties": {"Title": "CARG Foglio 387 - ALBANO LAZIALE", "DOI": "ISPRA-CARG-387", "URL": "https://www.isprambiente.gov.it/Media/carg/387_ALBANO_LAZIALE/Foglio.html", "Location": "Italy (CARG Grid)", "Type": "Official Map (1:50k)"}}, {"type": "Feature", "geometry": {"type": "Polygon", "coordinates": [[[12.85, 41.9], [13.15, 41.9], [13.15, 42.1], [12.85, 42.1], [12.85, 41.9]]]}, "properties": {"Title": "CARG Foglio 388 - VELLETRI", "DOI": "ISPRA-CARG-388", "URL": "https://www.isprambiente.gov.it/Media/carg/388_VELLETRI/Foglio.html", "Location": "Italy (CARG Grid)", "Type": "Official Map (1:50k)"}}, {"type": "Feature", "geometry": {"type": "Polygon", "coordinates": [[[12.85, 41.9], [13.15, 41.9], [13.15, 42.1], [12.85, 42.1], [12.85, 41.9]]]}, "properties": {"Title": "CARG Foglio 389 - ANAGNI", "DOI": "ISPRA-CARG-389", "URL": "https://www.isprambiente.gov.it/Media/carg/389_ANAGNI/Foglio.html", "Location": "Italy (CARG Grid)", "Type": "Official Map (1:50k)"}}, {"type": "Feature", "geometry": {"type": "Polygon", "coordinates": [[[12.85, 41.9], [13.15, 41.9], [13.15, 42.1], [12.85, 42.1], [12.85, 41.9]]]}, "properties": {"Title": "CARG Foglio 390 - SORA", "DOI": "ISPRA-CARG-390", "URL": "https://www.isprambiente.gov.it/Media/carg/390_SORA/Foglio.html", "Location": "Italy (CARG Grid)", "Type": "Official Map (1:50k)"}}, {"type": "Feature", "geometry": {"type": "Polygon", "coordinates": [[[12.85, 41.9], [13.15, 41.9], [13.15, 42.1], [12.85, 42.1], [12.85, 41.9]]]}, "properties": {"Title": "CARG Foglio 392 - CASTEL DI SANGRO", "DOI": "ISPRA-CARG-392", "URL": "https://www.isprambiente.gov.it/Media/carg/392_CASTEL_DI_SANGRO/Foglio.html", "Location": "Italy (CARG Grid)", "Type": "Official Map (1:50k)"}}, {"type": "Feature", "geometry": {"type": "Polygon", "coordinates": [[[12.85, 41.9], [13.15, 41.9], [13.15, 42.1], [12.85, 42.1], [12.85, 41.9]]]}, "properties": {"Title": "CARG Foglio 393 - TRIVENTO", "DOI": "ISPRA-CARG-393", "URL": "https://www.isprambiente.gov.it/Media/carg/393_TRIVENTO/Foglio.html", "Location": "Italy (CARG Grid)", "Type": "Official Map (1:50k)"}}, {"type": "Feature", "geometry": {"type": "Polygon", "coordinates": [[[14.85, 40.9], [15.15, 40.9], [15.15, 41.1], [14.85, 41.1], [14.85, 40.9]]]}, "properties": {"Title": "CARG Foglio 402 - CECCANO", "DOI": "ISPRA-CARG-402", "URL": "https://www.isprambiente.gov.it/Media/carg/402_CECCANO/Foglio.html", "Location": "Italy (CARG Grid)", "Type": "Official Map (1:50k)"}}, {"type": "Feature", "geometry": {"type": "Polygon", "coordinates": [[[14.85, 40.9], [15.15, 40.9], [15.15, 41.1], [14.85, 41.1], [14.85, 40.9]]]}, "properties": {"Title": "CARG Foglio 403 - CASSINO", "DOI": "ISPRA-CARG-403", "URL": "https://www.isprambiente.gov.it/Media/carg/403_CASSINO/Foglio.html", "Location": "Italy (CARG Grid)", "Type": "Official Map (1:50k)"}}, {"type": "Feature", "geometry": {"type": "Polygon", "coordinates": [[[14.85, 40.9], [15.15, 40.9], [15.15, 41.1], [14.85, 41.1], [14.85, 40.9]]]}, "properties": {"Title": "CARG Foglio 404 - ISERNIA", "DOI": "ISPRA-CARG-404", "URL": "https://www.isprambiente.gov.it/Media/carg/404_ISERNIA/Foglio.html", "Location": "Italy (CARG Grid)", "Type": "Official Map (1:50k)"}}, {"type": "Feature", "geometry": {"type": "Polygon", "coordinates": [[[14.85, 40.9], [15.15, 40.9], [15.15, 41.1], [14.85, 41.1], [14.85, 40.9]]]}, "properties": {"Title": "CARG Foglio 405 - CAMPOBASSO", "DOI": "ISPRA-CARG-405", "URL": "https://www.isprambiente.gov.it/Media/carg/405_CAMPOBASSO/Foglio.html", "Location": "Italy (CARG Grid)", "Type": "Official Map (1:50k)"}}, {"type": "Feature", "geometry": {"type": "Polygon", "coordinates": [[[8.85, 40.9], [9.15, 40.9], [9.15, 41.1], [8.85, 41.1], [8.85, 40.9]]]}, "properties": {"Title": "CARG Foglio 415 - TEANO", "DOI": "ISPRA-CARG-415", "URL": "https://www.isprambiente.gov.it/Media/carg/415_TEANO/Foglio.html", "Location": "Italy (CARG Grid)", "Type": "Official Map (1:50k)"}}, {"type": "Feature", "geometry": {"type": "Polygon", "coordinates": [[[8.85, 40.9], [9.15, 40.9], [9.15, 41.1], [8.85, 41.1], [8.85, 40.9]]]}, "properties": {"Title": "CARG Foglio 416 - FOGGIA", "DOI": "ISPRA-CARG-416", "URL": "https://www.isprambiente.gov.it/Media/carg/416_FOGGIA/Foglio.html", "Location": "Italy (CARG Grid)", "Type": "Official Map (1:50k)"}}, {"type": "Feature", "geometry": {"type": "Polygon", "coordinates": [[[8.85, 40.9], [9.15, 40.9], [9.15, 41.1], [8.85, 41.1], [8.85, 40.9]]]}, "properties": {"Title": "CARG Foglio 418 - CERIGNOLA", "DOI": "ISPRA-CARG-418", "URL": "https://www.isprambiente.gov.it/Media/carg/418_CERIGNOLA/Foglio.html", "Location": "Italy (CARG Grid)", "Type": "Official Map (1:50k)"}}, {"type": "Feature", "geometry": {"type": "Polygon", "coordinates": [[[8.85, 40.9], [9.15, 40.9], [9.15, 41.1], [8.85, 41.1], [8.85, 40.9]]]}, "properties": {"Title": "CARG Foglio 428 - BARLETTA", "DOI": "ISPRA-CARG-428", "URL": "https://www.isprambiente.gov.it/Media/carg/428_BARLETTA/Foglio.html", "Location": "Italy (CARG Grid)", "Type": "Official Map (1:50k)"}}, {"type": "Feature", "geometry": {"type": "Polygon", "coordinates": [[[14.85, 40.9], [15.15, 40.9], [15.15, 41.1], [14.85, 41.1], [14.85, 40.9]]]}, "properties": {"Title": "CARG Foglio 432 - BENEVENTO", "DOI": "ISPRA-CARG-432", "URL": "https://www.isprambiente.gov.it/Media/carg/432_BENEVENTO/Foglio.html", "Location": "Italy (CARG Grid)", "Type": "Official Map (1:50k)"}}, {"type": "Feature", "geometry": {"type": "Polygon", "coordinates": [[[14.85, 40.9], [15.15, 40.9], [15.15, 41.1], [14.85, 41.1], [14.85, 40.9]]]}, "properties": {"Title": "CARG Foglio 433 - ARIANO IRPINO", "DOI": "ISPRA-CARG-433", "URL": "https://www.isprambiente.gov.it/Media/carg/433_ARIANO_IRPINO/Foglio.html", "Location": "Italy (CARG Grid)", "Type": "Official Map (1:50k)"}}, {"type": "Feature", "geometry": {"type": "Polygon", "coordinates": [[[14.85, 40.9], [15.15, 40.9], [15.15, 41.1], [14.85, 41.1], [14.85, 40.9]]]}, "properties": {"Title": "CARG Foglio 437 - BARI", "DOI": "ISPRA-CARG-437", "URL": "https://www.isprambiente.gov.it/Media/carg/437_BARI/Foglio.html", "Location": "Italy (CARG Grid)", "Type": "Official Map (1:50k)"}}, {"type": "Feature", "geometry": {"type": "Polygon", "coordinates": [[[14.85, 40.9], [15.15, 40.9], [15.15, 41.1], [14.85, 41.1], [14.85, 40.9]]]}, "properties": {"Title": "CARG Foglio 438 - MOLA DI BARI", "DOI": "ISPRA-CARG-438", "URL": "https://www.isprambiente.gov.it/Media/carg/438_MOLA_DI_BARI/Foglio.html", "Location": "Italy (CARG Grid)", "Type": "Official Map (1:50k)"}}, {"type": "Feature", "geometry": {"type": "Polygon", "coordinates": [[[14.85, 40.9], [15.15, 40.9], [15.15, 41.1], [14.85, 41.1], [14.85, 40.9]]]}, "properties": {"Title": "CARG Foglio 445 - POZZUOLI", "DOI": "ISPRA-CARG-445", "URL": "https://www.isprambiente.gov.it/Media/carg/445_POZZUOLI/Foglio.html", "Location": "Italy (CARG Grid)", "Type": "Official Map (1:50k)"}}, {"type": "Feature", "geometry": {"type": "Polygon", "coordinates": [[[14.85, 40.9], [15.15, 40.9], [15.15, 41.1], [14.85, 41.1], [14.85, 40.9]]]}, "properties": {"Title": "CARG Foglio 446 - NAPOLI", "DOI": "ISPRA-CARG-446", "URL": "https://www.isprambiente.gov.it/Media/carg/446_NAPOLI/Foglio.html", "Location": "Italy (CARG Grid)", "Type": "Official Map (1:50k)"}}, {"type": "Feature", "geometry": {"type": "Polygon", "coordinates": [[[14.85, 40.9], [15.15, 40.9], [15.15, 41.1], [14.85, 41.1], [14.85, 40.9]]]}, "properties": {"Title": "CARG Foglio 447 - ERCOLANO", "DOI": "ISPRA-CARG-447", "URL": "https://www.isprambiente.gov.it/Media/carg/447_ERCOLANO/Foglio.html", "Location": "Italy (CARG Grid)", "Type": "Official Map (1:50k)"}}, {"type": "Feature", "geometry": {"type": "Polygon", "coordinates": [[[14.85, 40.9], [15.15, 40.9], [15.15, 41.1], [14.85, 41.1], [14.85, 40.9]]]}, "properties": {"Title": "CARG Foglio 448 - NOCERA INFERIORE", "DOI": "ISPRA-CARG-448", "URL": "https://www.isprambiente.gov.it/Media/carg/448_NOCERA_INFERIORE/Foglio.html", "Location": "Italy (CARG Grid)", "Type": "Official Map (1:50k)"}}, {"type": "Feature", "geometry": {"type": "Polygon", "coordinates": [[[14.85, 40.9], [15.15, 40.9], [15.15, 41.1], [14.85, 41.1], [14.85, 40.9]]]}, "properties": {"Title": "CARG Foglio 449 - AVELLINO", "DOI": "ISPRA-CARG-449", "URL": "https://www.isprambiente.gov.it/Media/carg/449_AVELLINO/Foglio.html", "Location": "Italy (CARG Grid)", "Type": "Official Map (1:50k)"}}, {"type": "Feature", "geometry": {"type": "Polygon", "coordinates": [[[14.85, 40.9], [15.15, 40.9], [15.15, 41.1], [14.85, 41.1], [14.85, 40.9]]]}, "properties": {"Title": "CARG Foglio 450 - SANT'ANGELO DEI LOMBARDI", "DOI": "ISPRA-CARG-450", "URL": "https://www.isprambiente.gov.it/Media/carg/450_SANTANGELO_DEI_LOMBARDI/Foglio.html", "Location": "Italy (CARG Grid)", "Type": "Official Map (1:50k)"}}, {"type": "Feature", "geometry": {"type": "Polygon", "coordinates": [[[14.85, 40.9], [15.15, 40.9], [15.15, 41.1], [14.85, 41.1], [14.85, 40.9]]]}, "properties": {"Title": "CARG Foglio 451 - MELFI", "DOI": "ISPRA-CARG-451", "URL": "https://www.isprambiente.gov.it/Media/carg/451_MELFI/Foglio.html", "Location": "Italy (CARG Grid)", "Type": "Official Map (1:50k)"}}, {"type": "Feature", "geometry": {"type": "Polygon", "coordinates": [[[8.85, 40.9], [9.15, 40.9], [9.15, 41.1], [8.85, 41.1], [8.85, 40.9]]]}, "properties": {"Title": "CARG Foglio 464 - ISOLA D'ISCHIA", "DOI": "ISPRA-CARG-464", "URL": "https://www.isprambiente.gov.it/Media/carg/464_ISOLA_DISCHIA/Foglio.html", "Location": "Italy (CARG Grid)", "Type": "Official Map (1:50k)"}}, {"type": "Feature", "geometry": {"type": "Polygon", "coordinates": [[[8.85, 40.9], [9.15, 40.9], [9.15, 41.1], [8.85, 41.1], [8.85, 40.9]]]}, "properties": {"Title": "CARG Foglio 465 - ISOLA DI PROCIDA", "DOI": "ISPRA-CARG-465", "URL": "https://www.isprambiente.gov.it/Media/carg/465_ISOLA_DI_PROCIDA/Foglio.html", "Location": "Italy (CARG Grid)", "Type": "Official Map (1:50k)"}}, {"type": "Feature", "geometry": {"type": "Polygon", "coordinates": [[[8.85, 40.9], [9.15, 40.9], [9.15, 41.1], [8.85, 41.1], [8.85, 40.9]]]}, "properties": {"Title": "CARG Foglio 466 - SORRENTO", "DOI": "ISPRA-CARG-466", "URL": "https://www.isprambiente.gov.it/Media/carg/466_SORRENTO/Foglio.html", "Location": "Italy (CARG Grid)", "Type": "Official Map (1:50k)"}}, {"type": "Feature", "geometry": {"type": "Polygon", "coordinates": [[[8.85, 40.9], [9.15, 40.9], [9.15, 41.1], [8.85, 41.1], [8.85, 40.9]]]}, "properties": {"Title": "CARG Foglio 467 - SALERNO", "DOI": "ISPRA-CARG-467", "URL": "https://www.isprambiente.gov.it/Media/carg/467_SALERNO/Foglio.html", "Location": "Italy (CARG Grid)", "Type": "Official Map (1:50k)"}}, {"type": "Feature", "geometry": {"type": "Polygon", "coordinates": [[[8.85, 40.9], [9.15, 40.9], [9.15, 41.1], [8.85, 41.1], [8.85, 40.9]]]}, "properties": {"Title": "CARG Foglio 468 - EBOLI", "DOI": "ISPRA-CARG-468", "URL": "https://www.isprambiente.gov.it/Media/carg/468_EBOLI/Foglio.html", "Location": "Italy (CARG Grid)", "Type": "Official Map (1:50k)"}}, {"type": "Feature", "geometry": {"type": "Polygon", "coordinates": [[[8.85, 40.9], [9.15, 40.9], [9.15, 41.1], [8.85, 41.1], [8.85, 40.9]]]}, "properties": {"Title": "CARG Foglio 470 - POTENZA", "DOI": "ISPRA-CARG-470", "URL": "https://www.isprambiente.gov.it/Media/carg/470_POTENZA/Foglio.html", "Location": "Italy (CARG Grid)", "Type": "Official Map (1:50k)"}}, {"type": "Feature", "geometry": {"type": "Polygon", "coordinates": [[[8.85, 40.9], [9.15, 40.9], [9.15, 41.1], [8.85, 41.1], [8.85, 40.9]]]}, "properties": {"Title": "CARG Foglio 471 - IRSINA", "DOI": "ISPRA-CARG-471", "URL": "https://www.isprambiente.gov.it/Media/carg/471_IRSINA/Foglio.html", "Location": "Italy (CARG Grid)", "Type": "Official Map (1:50k)"}}, {"type": "Feature", "geometry": {"type": "Polygon", "coordinates": [[[8.85, 39.9], [9.15, 39.9], [9.15, 40.1], [8.85, 40.1], [8.85, 39.9]]]}, "properties": {"Title": "CARG Foglio 486 - FOCE DEL SELE", "DOI": "ISPRA-CARG-486", "URL": "https://www.isprambiente.gov.it/Media/carg/486_FOCE_DEL_SELE/Foglio.html", "Location": "Italy (CARG Grid)", "Type": "Official Map (1:50k)"}}, {"type": "Feature", "geometry": {"type": "Polygon", "coordinates": [[[8.85, 39.9], [9.15, 39.9], [9.15, 40.1], [8.85, 40.1], [8.85, 39.9]]]}, "properties": {"Title": "CARG Foglio 489 - MARSICO NUOVO", "DOI": "ISPRA-CARG-489", "URL": "https://www.isprambiente.gov.it/Media/carg/489_MARSICO_NUOVO/Foglio.html", "Location": "Italy (CARG Grid)", "Type": "Official Map (1:50k)"}}, {"type": "Feature", "geometry": {"type": "Polygon", "coordinates": [[[8.85, 39.9], [9.15, 39.9], [9.15, 40.1], [8.85, 40.1], [8.85, 39.9]]]}, "properties": {"Title": "CARG Foglio 490 - TRICARICO", "DOI": "ISPRA-CARG-490", "URL": "https://www.isprambiente.gov.it/Media/carg/490_TRICARICO/Foglio.html", "Location": "Italy (CARG Grid)", "Type": "Official Map (1:50k)"}}, {"type": "Feature", "geometry": {"type": "Polygon", "coordinates": [[[8.85, 39.9], [9.15, 39.9], [9.15, 40.1], [8.85, 40.1], [8.85, 39.9]]]}, "properties": {"Title": "CARG Foglio 491 - MATERA", "DOI": "ISPRA-CARG-491", "URL": "https://www.isprambiente.gov.it/Media/carg/491_MATERA/Foglio.html", "Location": "Italy (CARG Grid)", "Type": "Official Map (1:50k)"}}, {"type": "Feature", "geometry": {"type": "Polygon", "coordinates": [[[8.85, 39.9], [9.15, 39.9], [9.15, 40.1], [8.85, 40.1], [8.85, 39.9]]]}, "properties": {"Title": "CARG Foglio 504 - SALA CONSILINA", "DOI": "ISPRA-CARG-504", "URL": "https://www.isprambiente.gov.it/Media/carg/504_SALA_CONSILINA/Foglio.html", "Location": "Italy (CARG Grid)", "Type": "Official Map (1:50k)"}}, {"type": "Feature", "geometry": {"type": "Polygon", "coordinates": [[[8.85, 39.9], [9.15, 39.9], [9.15, 40.1], [8.85, 40.1], [8.85, 39.9]]]}, "properties": {"Title": "CARG Foglio 505 - MOLITERNO", "DOI": "ISPRA-CARG-505", "URL": "https://www.isprambiente.gov.it/Media/carg/505_MOLITERNO/Foglio.html", "Location": "Italy (CARG Grid)", "Type": "Official Map (1:50k)"}}, {"type": "Feature", "geometry": {"type": "Polygon", "coordinates": [[[8.85, 39.9], [9.15, 39.9], [9.15, 40.1], [8.85, 40.1], [8.85, 39.9]]]}, "properties": {"Title": "CARG Foglio 506 - SANT'ARCANGELO", "DOI": "ISPRA-CARG-506", "URL": "https://www.isprambiente.gov.it/Media/carg/506_SANTARCANGELO/Foglio.html", "Location": "Italy (CARG Grid)", "Type": "Official Map (1:50k)"}}, {"type": "Feature", "geometry": {"type": "Polygon", "coordinates": [[[8.85, 39.9], [9.15, 39.9], [9.15, 40.1], [8.85, 40.1], [8.85, 39.9]]]}, "properties": {"Title": "CARG Foglio 519 - CAPO PALINURO", "DOI": "ISPRA-CARG-519", "URL": "https://www.isprambiente.gov.it/Media/carg/519_CAPO_PALINURO/Foglio.html", "Location": "Italy (CARG Grid)", "Type": "Official Map (1:50k)"}}, {"type": "Feature", "geometry": {"type": "Polygon", "coordinates": [[[8.85, 39.9], [9.15, 39.9], [9.15, 40.1], [8.85, 40.1], [8.85, 39.9]]]}, "properties": {"Title": "CARG Foglio 520 - SAPRI", "DOI": "ISPRA-CARG-520", "URL": "https://www.isprambiente.gov.it/Media/carg/520_SAPRI/Foglio.html", "Location": "Italy (CARG Grid)", "Type": "Official Map (1:50k)"}}, {"type": "Feature", "geometry": {"type": "Polygon", "coordinates": [[[8.85, 39.9], [9.15, 39.9], [9.15, 40.1], [8.85, 40.1], [8.85, 39.9]]]}, "properties": {"Title": "CARG Foglio 521 - LAURIA", "DOI": "ISPRA-CARG-521", "URL": "https://www.isprambiente.gov.it/Media/carg/521_LAURIA/Foglio.html", "Location": "Italy (CARG Grid)", "Type": "Official Map (1:50k)"}}, {"type": "Feature", "geometry": {"type": "Polygon", "coordinates": [[[8.85, 39.9], [9.15, 39.9], [9.15, 40.1], [8.85, 40.1], [8.85, 39.9]]]}, "properties": {"Title": "CARG Foglio 522 - SENISE", "DOI": "ISPRA-CARG-522", "URL": "https://www.isprambiente.gov.it/Media/carg/522_SENISE/Foglio.html", "Location": "Italy (CARG Grid)", "Type": "Official Map (1:50k)"}}, {"type": "Feature", "geometry": {"type": "Polygon", "coordinates": [[[8.85, 39.9], [9.15, 39.9], [9.15, 40.1], [8.85, 40.1], [8.85, 39.9]]]}, "properties": {"Title": "CARG Foglio 535 - DIAMANTE", "DOI": "ISPRA-CARG-535", "URL": "https://www.isprambiente.gov.it/Media/carg/535_DIAMANTE/Foglio.html", "Location": "Italy (CARG Grid)", "Type": "Official Map (1:50k)"}}, {"type": "Feature", "geometry": {"type": "Polygon", "coordinates": [[[8.85, 39.9], [9.15, 39.9], [9.15, 40.1], [8.85, 40.1], [8.85, 39.9]]]}, "properties": {"Title": "CARG Foglio 536 - CASTROVILLARI", "DOI": "ISPRA-CARG-536", "URL": "https://www.isprambiente.gov.it/Media/carg/536_CASTROVILLARI/Foglio.html", "Location": "Italy (CARG Grid)", "Type": "Official Map (1:50k)"}}, {"type": "Feature", "geometry": {"type": "Polygon", "coordinates": [[[8.85, 39.9], [9.15, 39.9], [9.15, 40.1], [8.85, 40.1], [8.85, 39.9]]]}, "properties": {"Title": "CARG Foglio 537 - CASSANO ALLO IONIO", "DOI": "ISPRA-CARG-537", "URL": "https://www.isprambiente.gov.it/Media/carg/537_CASSANO_ALLO_IONIO/Foglio.html", "Location": "Italy (CARG Grid)", "Type": "Official Map (1:50k)"}}, {"type": "Feature", "geometry": {"type": "Polygon", "coordinates": [[[8.85, 39.9], [9.15, 39.9], [9.15, 40.1], [8.85, 40.1], [8.85, 39.9]]]}, "properties": {"Title": "CARG Foglio 550 - CETRARO", "DOI": "ISPRA-CARG-550", "URL": "https://www.isprambiente.gov.it/Media/carg/550_CETRARO/Foglio.html", "Location": "Italy (CARG Grid)", "Type": "Official Map (1:50k)"}}, {"type": "Feature", "geometry": {"type": "Polygon", "coordinates": [[[8.85, 39.9], [9.15, 39.9], [9.15, 40.1], [8.85, 40.1], [8.85, 39.9]]]}, "properties": {"Title": "CARG Foglio 560 - LAMEZIA TERME", "DOI": "ISPRA-CARG-560", "URL": "https://www.isprambiente.gov.it/Media/carg/560_LAMEZIA_TERME/Foglio.html", "Location": "Italy (CARG Grid)", "Type": "Official Map (1:50k)"}}, {"type": "Feature", "geometry": {"type": "Polygon", "coordinates": [[[8.85, 39.9], [9.15, 39.9], [9.15, 40.1], [8.85, 40.1], [8.85, 39.9]]]}, "properties": {"Title": "CARG Foglio 561 - SAN GIOVANNI IN FIORE", "DOI": "ISPRA-CARG-561", "URL": "https://www.isprambiente.gov.it/Media/carg/561_SAN_GIOVANNI_IN_FIORE/Foglio.html", "Location": "Italy (CARG Grid)", "Type": "Official Map (1:50k)"}}, {"type": "Feature", "geometry": {"type": "Polygon", "coordinates": [[[15.85, 39.9], [16.15, 39.9], [16.15, 40.1], [15.85, 40.1], [15.85, 39.9]]]}, "properties": {"Title": "CARG Foglio 569 - SOVERATO", "DOI": "ISPRA-CARG-569", "URL": "https://www.isprambiente.gov.it/Media/carg/569_SOVERATO/Foglio.html", "Location": "Italy (CARG Grid)", "Type": "Official Map (1:50k)"}}, {"type": "Feature", "geometry": {"type": "Polygon", "coordinates": [[[15.85, 39.9], [16.15, 39.9], [16.15, 40.1], [15.85, 40.1], [15.85, 39.9]]]}, "properties": {"Title": "CARG Foglio 576 - VIBO VALENTIA", "DOI": "ISPRA-CARG-576", "URL": "https://www.isprambiente.gov.it/Media/carg/576_VIBO_VALENTIA/Foglio.html", "Location": "Italy (CARG Grid)", "Type": "Official Map (1:50k)"}}, {"type": "Feature", "geometry": {"type": "Polygon", "coordinates": [[[15.35, 37.9], [15.65, 37.9], [15.65, 38.1], [15.35, 38.1], [15.35, 37.9]]]}, "properties": {"Title": "CARG Foglio 602 - REGGIO DI CALABRIA", "DOI": "ISPRA-CARG-602", "URL": "https://www.isprambiente.gov.it/Media/carg/602_REGGIO_DI_CALABRIA/Foglio.html", "Location": "Italy (CARG Grid)", "Type": "Official Map (1:50k)"}}, {"type": "Feature", "geometry": {"type": "Polygon", "coordinates": [[[15.35, 37.9], [15.65, 37.9], [15.65, 38.1], [15.35, 38.1], [15.35, 37.9]]]}, "properties": {"Title": "CARG Foglio 586 - SANT'AGATA DI MILITELLO", "DOI": "ISPRA-CARG-586", "URL": "https://www.isprambiente.gov.it/Media/carg/586_SANTAGATA_DI_MILITELLO/Foglio.html", "Location": "Italy (CARG Grid)", "Type": "Official Map (1:50k)"}}, {"type": "Feature", "geometry": {"type": "Polygon", "coordinates": [[[15.35, 37.9], [15.65, 37.9], [15.65, 38.1], [15.35, 38.1], [15.35, 37.9]]]}, "properties": {"Title": "CARG Foglio 595 - PALERMO", "DOI": "ISPRA-CARG-595", "URL": "https://www.isprambiente.gov.it/Media/carg/595_PALERMO/Foglio.html", "Location": "Italy (CARG Grid)", "Type": "Official Map (1:50k)"}}, {"type": "Feature", "geometry": {"type": "Polygon", "coordinates": [[[15.35, 37.9], [15.65, 37.9], [15.65, 38.1], [15.35, 38.1], [15.35, 37.9]]]}, "properties": {"Title": "CARG Foglio 596 - CAPO PLAIA", "DOI": "ISPRA-CARG-596", "URL": "https://www.isprambiente.gov.it/Media/carg/596_CAPO_PLAIA/Foglio.html", "Location": "Italy (CARG Grid)", "Type": "Official Map (1:50k)"}}, {"type": "Feature", "geometry": {"type": "Polygon", "coordinates": [[[15.35, 37.9], [15.65, 37.9], [15.65, 38.1], [15.35, 38.1], [15.35, 37.9]]]}, "properties": {"Title": "CARG Foglio 608 - MESSINA", "DOI": "ISPRA-CARG-608", "URL": "https://www.isprambiente.gov.it/Media/carg/608_MESSINA/Foglio.html", "Location": "Italy (CARG Grid)", "Type": "Official Map (1:50k)"}}, {"type": "Feature", "geometry": {"type": "Polygon", "coordinates": [[[13.85, 37.4], [14.15, 37.4], [14.15, 37.6], [13.85, 37.6], [13.85, 37.4]]]}, "properties": {"Title": "CARG Foglio 611 - MISTRETTA", "DOI": "ISPRA-CARG-611", "URL": "https://www.isprambiente.gov.it/Media/carg/611_MISTRETTA/Foglio.html", "Location": "Italy (CARG Grid)", "Type": "Official Map (1:50k)"}}, {"type": "Feature", "geometry": {"type": "Polygon", "coordinates": [[[13.85, 37.4], [14.15, 37.4], [14.15, 37.6], [13.85, 37.6], [13.85, 37.4]]]}, "properties": {"Title": "CARG Foglio 614 - TERMINI IMERESE", "DOI": "ISPRA-CARG-614", "URL": "https://www.isprambiente.gov.it/Media/carg/614_TERMINI_IMERESE/Foglio.html", "Location": "Italy (CARG Grid)", "Type": "Official Map (1:50k)"}}, {"type": "Feature", "geometry": {"type": "Polygon", "coordinates": [[[13.85, 37.4], [14.15, 37.4], [14.15, 37.6], [13.85, 37.6], [13.85, 37.4]]]}, "properties": {"Title": "CARG Foglio 625 - ACIREALE", "DOI": "ISPRA-CARG-625", "URL": "https://www.isprambiente.gov.it/Media/carg/625_ACIREALE/Foglio.html", "Location": "Italy (CARG Grid)", "Type": "Official Map (1:50k)"}}, {"type": "Feature", "geometry": {"type": "Polygon", "coordinates": [[[13.85, 37.4], [14.15, 37.4], [14.15, 37.6], [13.85, 37.6], [13.85, 37.4]]]}, "properties": {"Title": "CARG Foglio 634 - CATANIA", "DOI": "ISPRA-CARG-634", "URL": "https://www.isprambiente.gov.it/Media/carg/634_CATANIA/Foglio.html", "Location": "Italy (CARG Grid)", "Type": "Official Map (1:50k)"}}, {"type": "Feature", "geometry": {"type": "Polygon", "coordinates": [[[13.85, 37.4], [14.15, 37.4], [14.15, 37.6], [13.85, 37.6], [13.85, 37.4]]]}, "properties": {"Title": "CARG Foglio 638 - CALTAGIRONE", "DOI": "ISPRA-CARG-638", "URL": "https://www.isprambiente.gov.it/Media/carg/638_CALTAGIRONE/Foglio.html", "Location": "Italy (CARG Grid)", "Type": "Official Map (1:50k)"}}, {"type": "Feature", "geometry": {"type": "Polygon", "coordinates": [[[13.85, 37.4], [14.15, 37.4], [14.15, 37.6], [13.85, 37.6], [13.85, 37.4]]]}, "properties": {"Title": "CARG Foglio 642 - GELA", "DOI": "ISPRA-CARG-642", "URL": "https://www.isprambiente.gov.it/Media/carg/642_GELA/Foglio.html", "Location": "Italy (CARG Grid)", "Type": "Official Map (1:50k)"}}, {"type": "Feature", "geometry": {"type": "Polygon", "coordinates": [[[13.85, 37.4], [14.15, 37.4], [14.15, 37.6], [13.85, 37.6], [13.85, 37.4]]]}, "properties": {"Title": "CARG Foglio 643 - VITTORIA", "DOI": "ISPRA-CARG-643", "URL": "https://www.isprambiente.gov.it/Media/carg/643_VITTORIA/Foglio.html", "Location": "Italy (CARG Grid)", "Type": "Official Map (1:50k)"}}, {"type": "Feature", "geometry": {"type": "Polygon", "coordinates": [[[13.85, 37.4], [14.15, 37.4], [14.15, 37.6], [13.85, 37.6], [13.85, 37.4]]]}, "properties": {"Title": "CARG Foglio 648 - RAGUSA", "DOI": "ISPRA-CARG-648", "URL": "https://www.isprambiente.gov.it/Media/carg/648_RAGUSA/Foglio.html", "Location": "Italy (CARG Grid)", "Type": "Official Map (1:50k)"}}, {"type": "Feature", "geometry": {"type": "Polygon", "coordinates": [[[13.85, 37.4], [14.15, 37.4], [14.15, 37.6], [13.85, 37.6], [13.85, 37.4]]]}, "properties": {"Title": "CARG Foglio 652 - PACHINO", "DOI": "ISPRA-CARG-652", "URL": "https://www.isprambiente.gov.it/Media/carg/652_PACHINO/Foglio.html", "Location": "Italy (CARG Grid)", "Type": "Official Map (1:50k)"}}, {"type": "Feature", "geometry": {"type": "Polygon", "coordinates": [[[8.85, 40.9], [9.15, 40.9], [9.15, 41.1], [8.85, 41.1], [8.85, 40.9]]]}, "properties": {"Title": "CARG Foglio 411 - BOCCHE DI BONIFACIO", "DOI": "ISPRA-CARG-411", "URL": "https://www.isprambiente.gov.it/Media/carg/411_BOCCHE_DI_BONIFACIO/Foglio.html", "Location": "Italy (CARG Grid)", "Type": "Official Map (1:50k)"}}, {"type": "Feature", "geometry": {"type": "Polygon", "coordinates": [[[8.85, 40.9], [9.15, 40.9], [9.15, 41.1], [8.85, 41.1], [8.85, 40.9]]]}, "properties": {"Title": "CARG Foglio 412 - LA MADDALENA", "DOI": "ISPRA-CARG-412", "URL": "https://www.isprambiente.gov.it/Media/carg/412_LA_MADDALENA/Foglio.html", "Location": "Italy (CARG Grid)", "Type": "Official Map (1:50k)"}}, {"type": "Feature", "geometry": {"type": "Polygon", "coordinates": [[[8.85, 40.9], [9.15, 40.9], [9.15, 41.1], [8.85, 41.1], [8.85, 40.9]]]}, "properties": {"Title": "CARG Foglio 426 - CAPO FALCONE", "DOI": "ISPRA-CARG-426", "URL": "https://www.isprambiente.gov.it/Media/carg/426_CAPO_FALCONE/Foglio.html", "Location": "Italy (CARG Grid)", "Type": "Official Map (1:50k)"}}, {"type": "Feature", "geometry": {"type": "Polygon", "coordinates": [[[8.85, 40.9], [9.15, 40.9], [9.15, 41.1], [8.85, 41.1], [8.85, 40.9]]]}, "properties": {"Title": "CARG Foglio 427 - PORTO TORRES", "DOI": "ISPRA-CARG-427", "URL": "https://www.isprambiente.gov.it/Media/carg/427_PORTO_TORRES/Foglio.html", "Location": "Italy (CARG Grid)", "Type": "Official Map (1:50k)"}}, {"type": "Feature", "geometry": {"type": "Polygon", "coordinates": [[[14.85, 40.9], [15.15, 40.9], [15.15, 41.1], [14.85, 41.1], [14.85, 40.9]]]}, "properties": {"Title": "CARG Foglio 441 - SASSARI", "DOI": "ISPRA-CARG-441", "URL": "https://www.isprambiente.gov.it/Media/carg/441_SASSARI/Foglio.html", "Location": "Italy (CARG Grid)", "Type": "Official Map (1:50k)"}}, {"type": "Feature", "geometry": {"type": "Polygon", "coordinates": [[[14.85, 40.9], [15.15, 40.9], [15.15, 41.1], [14.85, 41.1], [14.85, 40.9]]]}, "properties": {"Title": "CARG Foglio 442 - TEMPIO PAUSANIA", "DOI": "ISPRA-CARG-442", "URL": "https://www.isprambiente.gov.it/Media/carg/442_TEMPIO_PAUSANIA/Foglio.html", "Location": "Italy (CARG Grid)", "Type": "Official Map (1:50k)"}}, {"type": "Feature", "geometry": {"type": "Polygon", "coordinates": [[[14.85, 40.9], [15.15, 40.9], [15.15, 41.1], [14.85, 41.1], [14.85, 40.9]]]}, "properties": {"Title": "CARG Foglio 443 - OLBIA", "DOI": "ISPRA-CARG-443", "URL": "https://www.isprambiente.gov.it/Media/carg/443_OLBIA/Foglio.html", "Location": "Italy (CARG Grid)", "Type": "Official Map (1:50k)"}}, {"type": "Feature", "geometry": {"type": "Polygon", "coordinates": [[[8.85, 40.9], [9.15, 40.9], [9.15, 41.1], [8.85, 41.1], [8.85, 40.9]]]}, "properties": {"Title": "CARG Foglio 459 - ALGHERO", "DOI": "ISPRA-CARG-459", "URL": "https://www.isprambiente.gov.it/Media/carg/459_ALGHERO/Foglio.html", "Location": "Italy (CARG Grid)", "Type": "Official Map (1:50k)"}}, {"type": "Feature", "geometry": {"type": "Polygon", "coordinates": [[[8.85, 40.9], [9.15, 40.9], [9.15, 41.1], [8.85, 41.1], [8.85, 40.9]]]}, "properties": {"Title": "CARG Foglio 460 - BONORVA", "DOI": "ISPRA-CARG-460", "URL": "https://www.isprambiente.gov.it/Media/carg/460_BONORVA/Foglio.html", "Location": "Italy (CARG Grid)", "Type": "Official Map (1:50k)"}}, {"type": "Feature", "geometry": {"type": "Polygon", "coordinates": [[[8.85, 40.9], [9.15, 40.9], [9.15, 41.1], [8.85, 41.1], [8.85, 40.9]]]}, "properties": {"Title": "CARG Foglio 461 - OZIERI", "DOI": "ISPRA-CARG-461", "URL": "https://www.isprambiente.gov.it/Media/carg/461_OZIERI/Foglio.html", "Location": "Italy (CARG Grid)", "Type": "Official Map (1:50k)"}}, {"type": "Feature", "geometry": {"type": "Polygon", "coordinates": [[[8.85, 40.9], [9.15, 40.9], [9.15, 41.1], [8.85, 41.1], [8.85, 40.9]]]}, "properties": {"Title": "CARG Foglio 479 - BOSA", "DOI": "ISPRA-CARG-479", "URL": "https://www.isprambiente.gov.it/Media/carg/479_BOSA/Foglio.html", "Location": "Italy (CARG Grid)", "Type": "Official Map (1:50k)"}}, {"type": "Feature", "geometry": {"type": "Polygon", "coordinates": [[[8.85, 39.9], [9.15, 39.9], [9.15, 40.1], [8.85, 40.1], [8.85, 39.9]]]}, "properties": {"Title": "CARG Foglio 480 - MACOMER", "DOI": "ISPRA-CARG-480", "URL": "https://www.isprambiente.gov.it/Media/carg/480_MACOMER/Foglio.html", "Location": "Italy (CARG Grid)", "Type": "Official Map (1:50k)"}}, {"type": "Feature", "geometry": {"type": "Polygon", "coordinates": [[[8.85, 39.9], [9.15, 39.9], [9.15, 40.1], [8.85, 40.1], [8.85, 39.9]]]}, "properties": {"Title": "CARG Foglio 481 - NUORO", "DOI": "ISPRA-CARG-481", "URL": "https://www.isprambiente.gov.it/Media/carg/481_NUORO/Foglio.html", "Location": "Italy (CARG Grid)", "Type": "Official Map (1:50k)"}}, {"type": "Feature", "geometry": {"type": "Polygon", "coordinates": [[[8.85, 39.9], [9.15, 39.9], [9.15, 40.1], [8.85, 40.1], [8.85, 39.9]]]}, "properties": {"Title": "CARG Foglio 482 - DORGALI", "DOI": "ISPRA-CARG-482", "URL": "https://www.isprambiente.gov.it/Media/carg/482_DORGALI/Foglio.html", "Location": "Italy (CARG Grid)", "Type": "Official Map (1:50k)"}}, {"type": "Feature", "geometry": {"type": "Polygon", "coordinates": [[[8.85, 39.9], [9.15, 39.9], [9.15, 40.1], [8.85, 40.1], [8.85, 39.9]]]}, "properties": {"Title": "CARG Foglio 498 - SANTU LUSSURGIU", "DOI": "ISPRA-CARG-498", "URL": "https://www.isprambiente.gov.it/Media/carg/498_SANTU_LUSSURGIU/Foglio.html", "Location": "Italy (CARG Grid)", "Type": "Official Map (1:50k)"}}, {"type": "Feature", "geometry": {"type": "Polygon", "coordinates": [[[8.85, 39.9], [9.15, 39.9], [9.15, 40.1], [8.85, 40.1], [8.85, 39.9]]]}, "properties": {"Title": "CARG Foglio 499 - BUSACHI", "DOI": "ISPRA-CARG-499", "URL": "https://www.isprambiente.gov.it/Media/carg/499_BUSACHI/Foglio.html", "Location": "Italy (CARG Grid)", "Type": "Official Map (1:50k)"}}, {"type": "Feature", "geometry": {"type": "Polygon", "coordinates": [[[8.85, 39.9], [9.15, 39.9], [9.15, 40.1], [8.85, 40.1], [8.85, 39.9]]]}, "properties": {"Title": "CARG Foglio 500 - ORANI", "DOI": "ISPRA-CARG-500", "URL": "https://www.isprambiente.gov.it/Media/carg/500_ORANI/Foglio.html", "Location": "Italy (CARG Grid)", "Type": "Official Map (1:50k)"}}, {"type": "Feature", "geometry": {"type": "Polygon", "coordinates": [[[8.85, 39.9], [9.15, 39.9], [9.15, 40.1], [8.85, 40.1], [8.85, 39.9]]]}, "properties": {"Title": "CARG Foglio 514 - CABRAS", "DOI": "ISPRA-CARG-514", "URL": "https://www.isprambiente.gov.it/Media/carg/514_CABRAS/Foglio.html", "Location": "Italy (CARG Grid)", "Type": "Official Map (1:50k)"}}, {"type": "Feature", "geometry": {"type": "Polygon", "coordinates": [[[8.85, 39.9], [9.15, 39.9], [9.15, 40.1], [8.85, 40.1], [8.85, 39.9]]]}, "properties": {"Title": "CARG Foglio 515 - ORISTANO", "DOI": "ISPRA-CARG-515", "URL": "https://www.isprambiente.gov.it/Media/carg/515_ORISTANO/Foglio.html", "Location": "Italy (CARG Grid)", "Type": "Official Map (1:50k)"}}, {"type": "Feature", "geometry": {"type": "Polygon", "coordinates": [[[8.85, 39.9], [9.15, 39.9], [9.15, 40.1], [8.85, 40.1], [8.85, 39.9]]]}, "properties": {"Title": "CARG Foglio 528 - ORISTANO MERIDIONALE", "DOI": "ISPRA-CARG-528", "URL": "https://www.isprambiente.gov.it/Media/carg/528_ORISTANO_MERIDIONALE/Foglio.html", "Location": "Italy (CARG Grid)", "Type": "Official Map (1:50k)"}}, {"type": "Feature", "geometry": {"type": "Polygon", "coordinates": [[[8.85, 39.9], [9.15, 39.9], [9.15, 40.1], [8.85, 40.1], [8.85, 39.9]]]}, "properties": {"Title": "CARG Foglio 529 - MANDAS", "DOI": "ISPRA-CARG-529", "URL": "https://www.isprambiente.gov.it/Media/carg/529_MANDAS/Foglio.html", "Location": "Italy (CARG Grid)", "Type": "Official Map (1:50k)"}}, {"type": "Feature", "geometry": {"type": "Polygon", "coordinates": [[[8.85, 39.9], [9.15, 39.9], [9.15, 40.1], [8.85, 40.1], [8.85, 39.9]]]}, "properties": {"Title": "CARG Foglio 539 - GUSPINI", "DOI": "ISPRA-CARG-539", "URL": "https://www.isprambiente.gov.it/Media/carg/539_GUSPINI/Foglio.html", "Location": "Italy (CARG Grid)", "Type": "Official Map (1:50k)"}}, {"type": "Feature", "geometry": {"type": "Polygon", "coordinates": [[[8.85, 39.9], [9.15, 39.9], [9.15, 40.1], [8.85, 40.1], [8.85, 39.9]]]}, "properties": {"Title": "CARG Foglio 540 - MANDAS", "DOI": "ISPRA-CARG-540", "URL": "https://www.isprambiente.gov.it/Media/carg/540_MANDAS/Foglio.html", "Location": "Italy (CARG Grid)", "Type": "Official Map (1:50k)"}}, {"type": "Feature", "geometry": {"type": "Polygon", "coordinates": [[[8.85, 39.9], [9.15, 39.9], [9.15, 40.1], [8.85, 40.1], [8.85, 39.9]]]}, "properties": {"Title": "CARG Foglio 541 - JERZU", "DOI": "ISPRA-CARG-541", "URL": "https://www.isprambiente.gov.it/Media/carg/541_JERZU/Foglio.html", "Location": "Italy (CARG Grid)", "Type": "Official Map (1:50k)"}}, {"type": "Feature", "geometry": {"type": "Polygon", "coordinates": [[[8.85, 39.9], [9.15, 39.9], [9.15, 40.1], [8.85, 40.1], [8.85, 39.9]]]}, "properties": {"Title": "CARG Foglio 548 - IGLESIAS", "DOI": "ISPRA-CARG-548", "URL": "https://www.isprambiente.gov.it/Media/carg/548_IGLESIAS/Foglio.html", "Location": "Italy (CARG Grid)", "Type": "Official Map (1:50k)"}}, {"type": "Feature", "geometry": {"type": "Polygon", "coordinates": [[[8.85, 39.9], [9.15, 39.9], [9.15, 40.1], [8.85, 40.1], [8.85, 39.9]]]}, "properties": {"Title": "CARG Foglio 549 - MURAVERA", "DOI": "ISPRA-CARG-549", "URL": "https://www.isprambiente.gov.it/Media/carg/549_MURAVERA/Foglio.html", "Location": "Italy (CARG Grid)", "Type": "Official Map (1:50k)"}}, {"type": "Feature", "geometry": {"type": "Polygon", "coordinates": [[[8.85, 39.9], [9.15, 39.9], [9.15, 40.1], [8.85, 40.1], [8.85, 39.9]]]}, "properties": {"Title": "CARG Foglio 556 - ASSEMINI", "DOI": "ISPRA-CARG-556", "URL": "https://www.isprambiente.gov.it/Media/carg/556_ASSEMINI/Foglio.html", "Location": "Italy (CARG Grid)", "Type": "Official Map (1:50k)"}}, {"type": "Feature", "geometry": {"type": "Polygon", "coordinates": [[[8.85, 39.9], [9.15, 39.9], [9.15, 40.1], [8.85, 40.1], [8.85, 39.9]]]}, "properties": {"Title": "CARG Foglio 557 - CAGLIARI", "DOI": "ISPRA-CARG-557", "URL": "https://www.isprambiente.gov.it/Media/carg/557_CAGLIARI/Foglio.html", "Location": "Italy (CARG Grid)", "Type": "Official Map (1:50k)"}}, {"type": "Feature", "geometry": {"type": "Polygon", "coordinates": [[[8.85, 39.9], [9.15, 39.9], [9.15, 40.1], [8.85, 40.1], [8.85, 39.9]]]}, "properties": {"Title": "CARG Foglio 558 - SINNAI", "DOI": "ISPRA-CARG-558", "URL": "https://www.isprambiente.gov.it/Media/carg/558_SINNAI/Foglio.html", "Location": "Italy (CARG Grid)", "Type": "Official Map (1:50k)"}}, {"type": "Feature", "geometry": {"type": "Polygon", "coordinates": [[[8.85, 39.9], [9.15, 39.9], [9.15, 40.1], [8.85, 40.1], [8.85, 39.9]]]}, "properties": {"Title": "CARG Foglio 564 - CARBONIA", "DOI": "ISPRA-CARG-564", "URL": "https://www.isprambiente.gov.it/Media/carg/564_CARBONIA/Foglio.html", "Location": "Italy (CARG Grid)", "Type": "Official Map (1:50k)"}}, {"type": "Feature", "geometry": {"type": "Polygon", "coordinates": [[[8.85, 39.9], [9.15, 39.9], [9.15, 40.1], [8.85, 40.1], [8.85, 39.9]]]}, "properties": {"Title": "CARG Foglio 565 - CAPOTERRA", "DOI": "ISPRA-CARG-565", "URL": "https://www.isprambiente.gov.it/Media/carg/565_CAPOTERRA/Foglio.html", "Location": "Italy (CARG Grid)", "Type": "Official Map (1:50k)"}}]}