{"type": "FeatureCollection", "features": [{"type": "Feature", "geometry": {"type": "Polygon", "coordinates": [[[6.6, 44.0], [9.2, 44.0], [9.2, 46.5], [6.6, 46.5], [6.6, 44.0]]]}, "properties": {"Title": "Geological map of Piemonte region (1:250,000)", "DOI": "10.1016/j.quaint.2012.08.848", "URL": "https://doi.org/10.1016/j.quaint.2012.08.848", "Location": "Piemonte"}}, {"type": "Feature", "geometry": {"type": "Polygon", "coordinates": [[[9.6, 42.2], [12.4, 42.2], [12.4, 44.5], [9.6, 44.5], [9.6, 42.2]]]}, "properties": {"Title": "Geological map of Tuscany (1:250,000)", "DOI": "10.17656/jzs.10477", "URL": "https://doi.org/10.17656/jzs.10477", "Location": "Tuscany"}}, {"type": "Feature", "geometry": {"type": "Polygon", "coordinates": [[[8.1, 38.8], [9.9, 38.8], [9.9, 41.3], [8.1, 41.3], [8.1, 38.8]]]}, "properties": {"Title": "The geological map of Sardinia (1:250,000)", "DOI": "10.17656/jzs.10477", "URL": "https://doi.org/10.17656/jzs.10477", "Location": "Sardinia"}}, {"type": "Feature", "geometry": {"type": "Polygon", "coordinates": [[[13.8, 40.0], [15.7, 40.0], [15.7, 41.5], [13.8, 41.5], [13.8, 40.0]]]}, "properties": {"Title": "Geological map of the Campania region", "DOI": "10.1007/s11001-013-9186-4", "URL": "https://doi.org/10.1007/s11001-013-9186-4", "Location": "Campania"}}, {"type": "Feature", "geometry": {"type": "Polygon", "coordinates": [[[7.0, 44.6], [7.2, 44.6], [7.2, 44.8], [7.0, 44.8], [7.0, 44.6]]]}, "properties": {"Title": "Geological map of the Monviso massif (Western Alps)", "DOI": "10.1080/17445647.2013.842507", "URL": "https://doi.org/10.1080/17445647.2013.842507", "Location": "Monviso"}}, {"type": "Feature", "geometry": {"type": "Polygon", "coordinates": [[[7.8, 45.9], [8.0, 45.9], [8.0, 46.0], [7.8, 46.0], [7.8, 45.9]]]}, "properties": {"Title": "Geology of the Monte Rosa Nappe", "DOI": "10.1007/s00410-020-01759-0", "URL": "https://doi.org/10.1007/s00410-020-01759-0", "Location": "Monte Rosa"}}, {"type": "Feature", "geometry": {"type": "Polygon", "coordinates": [[[10.4, 46.0], [10.7, 46.0], [10.7, 46.2], [10.4, 46.2], [10.4, 46.0]]]}, "properties": {"Title": "Geological map of the Adamello batholith", "DOI": "10.1016/j.tecto.2014.11.022", "URL": "https://doi.org/10.1016/j.tecto.2014.11.022", "Location": "Adamello"}}, {"type": "Feature", "geometry": {"type": "Polygon", "coordinates": [[[11.7, 46.3], [12.5, 46.3], [12.5, 46.6], [11.7, 46.6], [11.7, 46.3]]]}, "properties": {"Title": "Geomorphology of the Dolomites (Italy)", "DOI": "10.1080/17445647.2019.1633426", "URL": "https://doi.org/10.1080/17445647.2019.1633426", "Location": "Dolomites"}}, {"type": "Feature", "geometry": {"type": "Polygon", "coordinates": [[[9.3, 45.9], [9.5, 45.9], [9.5, 46.0], [9.3, 46.0], [9.3, 45.9]]]}, "properties": {"Title": "Geological map of the Grigna Mountains", "DOI": "10.1086/330681", "URL": "https://doi.org/10.1086/330681", "Location": "Grigna"}}, {"type": "Feature", "geometry": {"type": "Polygon", "coordinates": [[[9.5, 45.9], [10.2, 45.9], [10.2, 46.1], [9.5, 46.1], [9.5, 45.9]]]}, "properties": {"Title": "Geology of the Orobic Alps", "DOI": "10.1007/s005310050168", "URL": "https://doi.org/10.1007/s005310050168", "Location": "Orobic Alps"}}, {"type": "Feature", "geometry": {"type": "Polygon", "coordinates": [[[11.4, 46.9], [11.6, 46.9], [11.6, 47.1], [11.4, 47.1], [11.4, 46.9]]]}, "properties": {"Title": "Geological map of the Brenner Pass", "DOI": "10.1093/owc/9780198901228.003.0001", "URL": "https://doi.org/10.1093/owc/9780198901228.003.0001", "Location": "Brenner Pass"}}, {"type": "Feature", "geometry": {"type": "Polygon", "coordinates": [[[7.5, 45.5], [8.5, 45.5], [8.5, 46.0], [7.5, 46.0], [7.5, 45.5]]]}, "properties": {"Title": "Geology of the Sesia-Lanzo Zone", "DOI": "10.1007/bf00375355", "URL": "https://doi.org/10.1007/bf00375355", "Location": "Sesia Zone"}}, {"type": "Feature", "geometry": {"type": "Polygon", "coordinates": [[[9.5, 46.1], [10.5, 46.1], [10.5, 46.5], [9.5, 46.5], [9.5, 46.1]]]}, "properties": {"Title": "Geological map of the Upper Valtellina", "DOI": "10.4113/jom.2011.1121", "URL": "https://doi.org/10.4113/jom.2011.1121", "Location": "Valtellina"}}, {"type": "Feature", "geometry": {"type": "Polygon", "coordinates": [[[6.8, 45.8], [7.0, 45.8], [7.0, 45.9], [6.8, 45.9], [6.8, 45.8]]]}, "properties": {"Title": "Geomorphology of the Miage Glacier (Mont Blanc)", "DOI": "10.3189/172756405781813690", "URL": "https://doi.org/10.3189/172756405781813690", "Location": "Mont Blanc"}}, {"type": "Feature", "geometry": {"type": "Polygon", "coordinates": [[[6.8, 44.2], [7.5, 44.2], [7.5, 45.0], [6.8, 45.0], [6.8, 44.2]]]}, "properties": {"Title": "Little Ice Age in the Western Piedmont Alps", "DOI": "10.1080/17445647.2014.880226", "URL": "https://doi.org/10.1080/17445647.2014.880226", "Location": "Piedmont Alps"}}, {"type": "Feature", "geometry": {"type": "Polygon", "coordinates": [[[7.2, 45.4], [7.5, 45.4], [7.5, 45.6], [7.2, 45.6], [7.2, 45.4]]]}, "properties": {"Title": "Geology of the Gran Paradiso Massif", "DOI": "10.1007/s00410-002-0357-6", "URL": "https://doi.org/10.1007/s00410-002-0357-6", "Location": "Gran Paradiso"}}, {"type": "Feature", "geometry": {"type": "Polygon", "coordinates": [[[7.0, 44.1], [7.4, 44.1], [7.4, 44.3], [7.0, 44.3], [7.0, 44.1]]]}, "properties": {"Title": "Geological map of the Argentera Massif", "DOI": "10.1080/17445647.2013.842507", "URL": "https://doi.org/10.1080/17445647.2013.842507", "Location": "Argentera"}}, {"type": "Feature", "geometry": {"type": "Polygon", "coordinates": [[[12.0, 46.5], [12.1, 46.5], [12.1, 46.6], [12.0, 46.6], [12.0, 46.5]]]}, "properties": {"Title": "Geology of the Dolomites: The Tofane Group", "DOI": "10.18814/epiiugs/2003/v26i3/005", "URL": "https://doi.org/10.18814/epiiugs/2003/v26i3/005", "Location": "Tofane"}}, {"type": "Feature", "geometry": {"type": "Polygon", "coordinates": [[[11.6, 46.4], [11.8, 46.4], [11.8, 46.5], [11.6, 46.5], [11.6, 46.4]]]}, "properties": {"Title": "Geological map of the Val di Fassa", "DOI": "10.1017/s0025100320000262", "URL": "https://doi.org/10.1017/s0025100320000262", "Location": "Val di Fassa"}}, {"type": "Feature", "geometry": {"type": "Polygon", "coordinates": [[[7.5, 44.9], [7.8, 44.9], [7.8, 45.2], [7.5, 45.2], [7.5, 44.9]]]}, "properties": {"Title": "Subsurface geology of the Torino metropolitan area", "DOI": "10.1080/17445647.2024.2391963", "URL": "https://doi.org/10.1080/17445647.2024.2391963", "Location": "Torino"}}, {"type": "Feature", "geometry": {"type": "Polygon", "coordinates": [[[9.5, 43.5], [12.5, 43.5], [12.5, 45.0], [9.5, 45.0], [9.5, 43.5]]]}, "properties": {"Title": "Geology of the Northern Apennines (Emilia-Romagna)", "DOI": "10.3390/d13110549", "URL": "https://doi.org/10.3390/d13110549", "Location": "Northern Apennines"}}, {"type": "Feature", "geometry": {"type": "Polygon", "coordinates": [[[9.6, 44.1], [9.8, 44.1], [9.8, 44.2], [9.6, 44.2], [9.6, 44.1]]]}, "properties": {"Title": "Geological map of the Cinque Terre National Park", "DOI": "10.1080/17445647.2020.1837270", "URL": "https://doi.org/10.1080/17445647.2020.1837270", "Location": "Cinque Terre"}}, {"type": "Feature", "geometry": {"type": "Polygon", "coordinates": [[[9.1, 44.8], [9.3, 44.8], [9.3, 44.9], [9.1, 44.9], [9.1, 44.8]]]}, "properties": {"Title": "Geology of the Villalvernia - Varzi Line", "DOI": "10.1080/17445647.2014.959569", "URL": "https://doi.org/10.1080/17445647.2014.959569", "Location": "Varzi"}}, {"type": "Feature", "geometry": {"type": "Polygon", "coordinates": [[[7.5, 43.7], [10.0, 43.7], [10.0, 44.5], [7.5, 44.5], [7.5, 43.7]]]}, "properties": {"Title": "Geological map of the Vetoio Valley", "DOI": "10.3126/jngs.v22i0.32346", "URL": "https://doi.org/10.3126/jngs.v22i0.32346", "Location": "Liguria"}}, {"type": "Feature", "geometry": {"type": "Polygon", "coordinates": [[[10.9, 43.2], [11.0, 43.2], [11.0, 43.3], [10.9, 43.3], [10.9, 43.2]]]}, "properties": {"Title": "Geology of Montecastelli Pisano", "DOI": "10.1080/17445647.2023.2242723", "URL": "https://doi.org/10.1080/17445647.2023.2242723", "Location": "Montecastelli Pisano"}}, {"type": "Feature", "geometry": {"type": "Polygon", "coordinates": [[[11.2, 43.3], [11.5, 43.3], [11.5, 43.6], [11.2, 43.6], [11.2, 43.3]]]}, "properties": {"Title": "Geological map of the Chianti Mountains", "DOI": "10.1080/17445647.2012.668423", "URL": "https://doi.org/10.1080/17445647.2012.668423", "Location": "Chianti Mts"}}, {"type": "Feature", "geometry": {"type": "Polygon", "coordinates": [[[10.1, 43.9], [10.4, 43.9], [10.4, 44.2], [10.1, 44.2], [10.1, 43.9]]]}, "properties": {"Title": "Geomorphology of the Apuan Alps", "DOI": "10.1007/978-981-13-2538-0_79", "URL": "https://doi.org/10.1007/978-981-13-2538-0_79", "Location": "Apuan Alps"}}, {"type": "Feature", "geometry": {"type": "Polygon", "coordinates": [[[10.1, 42.7], [10.5, 42.7], [10.5, 42.9], [10.1, 42.9], [10.1, 42.7]]]}, "properties": {"Title": "Geology of the Elba Island", "DOI": "10.3974/geodb.2021.08.08.v1", "URL": "https://doi.org/10.3974/geodb.2021.08.08.v1", "Location": "Elba Island"}}, {"type": "Feature", "geometry": {"type": "Polygon", "coordinates": [[[13.2, 42.6], [13.4, 42.6], [13.4, 42.7], [13.2, 42.7], [13.2, 42.6]]]}, "properties": {"Title": "Geological map of the 2016 Central Italy earthquake sequence", "DOI": "10.1193/080317eqs151m", "URL": "https://doi.org/10.1193/080317eqs151m", "Location": "Amatrice"}}, {"type": "Feature", "geometry": {"type": "Polygon", "coordinates": [[[13.0, 42.7], [13.2, 42.7], [13.2, 42.9], [13.0, 42.9], [13.0, 42.7]]]}, "properties": {"Title": "Surface ruptures following the 2016 Norcia earthquake", "DOI": "10.1080/17445647.2018.1441756", "URL": "https://doi.org/10.1080/17445647.2018.1441756", "Location": "Norcia"}}, {"type": "Feature", "geometry": {"type": "Polygon", "coordinates": [[[13.2, 42.8], [13.3, 42.8], [13.3, 42.9], [13.2, 42.9], [13.2, 42.8]]]}, "properties": {"Title": "Geomorphological map of the Monte Vettore area", "DOI": "10.1007/978-3-642-41714-6_70487", "URL": "https://doi.org/10.1007/978-3-642-41714-6_70487", "Location": "Monte Vettore"}}, {"type": "Feature", "geometry": {"type": "Polygon", "coordinates": [[[13.5, 42.4], [13.7, 42.4], [13.7, 42.5], [13.5, 42.5], [13.5, 42.4]]]}, "properties": {"Title": "Geology of the Gran Sasso d'Italia", "DOI": "10.1088/2058-7058/32/3/29", "URL": "https://doi.org/10.1088/2058-7058/32/3/29", "Location": "Gran Sasso"}}, {"type": "Feature", "geometry": {"type": "Polygon", "coordinates": [[[14.0, 42.0], [14.2, 42.0], [14.2, 42.2], [14.0, 42.2], [14.0, 42.0]]]}, "properties": {"Title": "Geological map of the Majella Mountain", "DOI": "10.4095/107851", "URL": "https://doi.org/10.4095/107851", "Location": "Majella"}}, {"type": "Feature", "geometry": {"type": "Polygon", "coordinates": [[[13.4, 41.9], [13.6, 41.9], [13.6, 42.1], [13.4, 42.1], [13.4, 41.9]]]}, "properties": {"Title": "Tectono-stratigraphic evolution of the Fucino Basin", "DOI": "10.1306/13531954m1083657", "URL": "https://doi.org/10.1306/13531954m1083657", "Location": "Fucino Basin"}}, {"type": "Feature", "geometry": {"type": "Polygon", "coordinates": [[[12.3, 41.8], [12.6, 41.8], [12.6, 42.0], [12.3, 42.0], [12.3, 41.8]]]}, "properties": {"Title": "Geomorphology of the historic centre of Rome", "DOI": "10.1080/17445647.2020.1761465", "URL": "https://doi.org/10.1080/17445647.2020.1761465", "Location": "Rome"}}, {"type": "Feature", "geometry": {"type": "Polygon", "coordinates": [[[12.6, 41.7], [12.8, 41.7], [12.8, 41.8], [12.6, 41.8], [12.6, 41.7]]]}, "properties": {"Title": "Geological map of the Colli Albani Volcano", "DOI": "10.1144/iavcei003", "URL": "https://doi.org/10.1144/iavcei003", "Location": "Colli Albani"}}, {"type": "Feature", "geometry": {"type": "Polygon", "coordinates": [[[13.7, 41.7], [14.0, 41.7], [14.0, 41.9], [13.7, 41.9], [13.7, 41.7]]]}, "properties": {"Title": "Geodiversity of the Abruzzo, Lazio, and Molise National Park", "DOI": "10.1080/17445647.2023.2243302", "URL": "https://doi.org/10.1080/17445647.2023.2243302", "Location": "Abruzzo National Park"}}, {"type": "Feature", "geometry": {"type": "Polygon", "coordinates": [[[13.3, 42.1], [13.6, 42.1], [13.6, 42.4], [13.3, 42.4], [13.3, 42.1]]]}, "properties": {"Title": "Geomorphological map of the Aterno River valley", "DOI": "10.1080/17445647.2013.867545", "URL": "https://doi.org/10.1080/17445647.2013.867545", "Location": "Aterno River"}}, {"type": "Feature", "geometry": {"type": "Polygon", "coordinates": [[[13.1, 42.8], [13.3, 42.8], [13.3, 43.0], [13.1, 43.0], [13.1, 42.8]]]}, "properties": {"Title": "Geology of the Sibillini Mountains", "DOI": "10.1007/978-3-319-21452-8_15", "URL": "https://doi.org/10.1007/978-3-319-21452-8_15", "Location": "Sibillini"}}, {"type": "Feature", "geometry": {"type": "Polygon", "coordinates": [[[14.5, 40.6], [14.7, 40.6], [14.7, 40.7], [14.5, 40.7], [14.5, 40.6]]]}, "properties": {"Title": "Geology of the Amalfi Coast", "DOI": "10.2307/j.ctv6sj826.16", "URL": "https://doi.org/10.2307/j.ctv6sj826.16", "Location": "Amalfi Coast"}}, {"type": "Feature", "geometry": {"type": "Polygon", "coordinates": [[[14.3, 40.8], [14.5, 40.8], [14.5, 40.9], [14.3, 40.9], [14.3, 40.8]]]}, "properties": {"Title": "Geological map of Somma-Vesuvius Volcano", "DOI": "10.1038/044271a0", "URL": "https://doi.org/10.1038/044271a0", "Location": "Vesuvius"}}, {"type": "Feature", "geometry": {"type": "Polygon", "coordinates": [[[14.0, 40.8], [14.2, 40.8], [14.2, 40.9], [14.0, 40.9], [14.0, 40.8]]]}, "properties": {"Title": "Geomorphology of the Campi Flegrei", "DOI": "10.1007/978-3-642-37060-1", "URL": "https://doi.org/10.1007/978-3-642-37060-1", "Location": "Campi Flegrei"}}, {"type": "Feature", "geometry": {"type": "Polygon", "coordinates": [[[13.8, 40.7], [14.0, 40.7], [14.0, 40.8], [13.8, 40.8], [13.8, 40.7]]]}, "properties": {"Title": "Geological map of Ischia Island", "DOI": "10.4095/107633", "URL": "https://doi.org/10.4095/107633", "Location": "Ischia"}}, {"type": "Feature", "geometry": {"type": "Polygon", "coordinates": [[[15.7, 40.2], [16.0, 40.2], [16.0, 40.5], [15.7, 40.5], [15.7, 40.2]]]}, "properties": {"Title": "Geological map of the high Agri Valley", "DOI": "10.1080/17445647.2012.722403", "URL": "https://doi.org/10.1080/17445647.2012.722403", "Location": "Agri Valley"}}, {"type": "Feature", "geometry": {"type": "Polygon", "coordinates": [[[15.3, 39.9], [16.9, 39.9], [16.9, 41.1], [15.3, 41.1], [15.3, 39.9]]]}, "properties": {"Title": "Vineyards mapping in Basilicata", "DOI": "10.1109/argo-geoinformatics.2013.6621881", "URL": "https://doi.org/10.1109/argo-geoinformatics.2013.6621881", "Location": "Basilicata"}}, {"type": "Feature", "geometry": {"type": "Polygon", "coordinates": [[[16.0, 40.0], [16.5, 40.0], [16.5, 40.2], [16.0, 40.2], [16.0, 40.0]]]}, "properties": {"Title": "Landslide inventory map of the Sinni River valley", "DOI": "10.1080/17445647.2014.949313", "URL": "https://doi.org/10.1080/17445647.2014.949313", "Location": "Sinni River"}}, {"type": "Feature", "geometry": {"type": "Polygon", "coordinates": [[[16.0, 40.3], [16.2, 40.3], [16.2, 40.4], [16.0, 40.4], [16.0, 40.3]]]}, "properties": {"Title": "Geology of the Gorgoglione Basin", "DOI": "10.3301/ijg.2015.05", "URL": "https://doi.org/10.3301/ijg.2015.05", "Location": "Gorgoglione"}}, {"type": "Feature", "geometry": {"type": "Polygon", "coordinates": [[[16.3, 40.3], [16.5, 40.3], [16.5, 40.4], [16.3, 40.4], [16.3, 40.3]]]}, "properties": {"Title": "Geomorphological map of Craco and Pisticci", "DOI": "10.1080/17445647.2014.935501", "URL": "https://doi.org/10.1080/17445647.2014.935501", "Location": "Craco"}}, {"type": "Feature", "geometry": {"type": "Polygon", "coordinates": [[[16.0, 39.8], [16.3, 39.8], [16.3, 40.0], [16.0, 40.0], [16.0, 39.8]]]}, "properties": {"Title": "Geology of the Pollino National Park", "DOI": "10.3832/efor0398-003", "URL": "https://doi.org/10.3832/efor0398-003", "Location": "Pollino"}}, {"type": "Feature", "geometry": {"type": "Polygon", "coordinates": [[[16.3, 39.0], [16.8, 39.0], [16.8, 39.5], [16.3, 39.5], [16.3, 39.0]]]}, "properties": {"Title": "Geology of the Sila Massif (Calabria)", "DOI": "10.3301/ijg.2009.128.3.731", "URL": "https://doi.org/10.3301/ijg.2009.128.3.731", "Location": "Sila"}}, {"type": "Feature", "geometry": {"type": "Polygon", "coordinates": [[[15.6, 37.9], [17.2, 37.9], [17.2, 40.2], [15.6, 40.2], [15.6, 37.9]]]}, "properties": {"Title": "Drought events in Calabria", "DOI": "10.1080/17445647.2014.891267", "URL": "https://doi.org/10.1080/17445647.2014.891267", "Location": "Calabria"}}, {"type": "Feature", "geometry": {"type": "Polygon", "coordinates": [[[15.3, 41.2], [16.0, 41.2], [16.0, 41.8], [15.3, 41.8], [15.3, 41.2]]]}, "properties": {"Title": "Geology of the Tavoliere di Puglia", "DOI": "10.1080/17445647.2013.861366", "URL": "https://doi.org/10.1080/17445647.2013.861366", "Location": "Tavoliere di Puglia"}}, {"type": "Feature", "geometry": {"type": "Polygon", "coordinates": [[[15.5, 41.6], [16.2, 41.6], [16.2, 42.0], [15.5, 42.0], [15.5, 41.6]]]}, "properties": {"Title": "Geomorphology of the Gargano Promontory", "DOI": "10.1016/0025-3227(94)00096-4", "URL": "https://doi.org/10.1016/0025-3227(94)00096-4", "Location": "Gargano"}}, {"type": "Feature", "geometry": {"type": "Polygon", "coordinates": [[[14.9, 37.7], [15.1, 37.7], [15.1, 37.8], [14.9, 37.8], [14.9, 37.7]]]}, "properties": {"Title": "Geological map of Mount Etna Volcano", "DOI": "10.3301/ijg.2011.15", "URL": "https://doi.org/10.3301/ijg.2011.15", "Location": "Etna"}}, {"type": "Feature", "geometry": {"type": "Polygon", "coordinates": [[[15.2, 38.7], [15.3, 38.7], [15.3, 38.9], [15.2, 38.9], [15.2, 38.7]]]}, "properties": {"Title": "Geomorphological map of Stromboli Volcano", "DOI": "10.5194/egusphere-egu24-2885", "URL": "https://doi.org/10.5194/egusphere-egu24-2885", "Location": "Stromboli"}}, {"type": "Feature", "geometry": {"type": "Polygon", "coordinates": [[[14.9, 38.3], [15.0, 38.3], [15.0, 38.5], [14.9, 38.5], [14.9, 38.3]]]}, "properties": {"Title": "Geology of Vulcano Island", "DOI": "10.3974/geodb.2021.02.05.v1", "URL": "https://doi.org/10.3974/geodb.2021.02.05.v1", "Location": "Vulcano Island"}}, {"type": "Feature", "geometry": {"type": "Polygon", "coordinates": [[[11.9, 36.7], [12.1, 36.7], [12.1, 36.9], [11.9, 36.9], [11.9, 36.7]]]}, "properties": {"Title": "Geological map of Pantelleria", "DOI": "10.1002/9781444338386.wbeah16207", "URL": "https://doi.org/10.1002/9781444338386.wbeah16207", "Location": "Pantelleria"}}, {"type": "Feature", "geometry": {"type": "Polygon", "coordinates": [[[12.4, 36.6], [15.7, 36.6], [15.7, 38.3], [12.4, 38.3], [12.4, 36.6]]]}, "properties": {"Title": "Geothermal reservoir of Sicily", "DOI": "10.1080/17445647.2014.935503", "URL": "https://doi.org/10.1080/17445647.2014.935503", "Location": "Sicily"}}, {"type": "Feature", "geometry": {"type": "Polygon", "coordinates": [[[12.5, 37.8], [13.5, 37.8], [13.5, 38.2], [12.5, 38.2], [12.5, 37.8]]]}, "properties": {"Title": "Coastal landscape evolution of north-western Sicily", "DOI": "10.1080/17445647.2022.2159889", "URL": "https://doi.org/10.1080/17445647.2022.2159889", "Location": "North-Western Sicily"}}, {"type": "Feature", "geometry": {"type": "Polygon", "coordinates": [[[13.2, 38.1], [13.4, 38.1], [13.4, 38.2], [13.2, 38.2], [13.2, 38.1]]]}, "properties": {"Title": "Geology of Monte Gallo (Palermo)", "DOI": "10.1080/17445647.2015.1124716", "URL": "https://doi.org/10.1080/17445647.2015.1124716", "Location": "Palermo Mts"}}, {"type": "Feature", "geometry": {"type": "Polygon", "coordinates": [[[14.8, 36.6], [15.2, 36.6], [15.2, 37.0], [14.8, 37.0], [14.8, 36.6]]]}, "properties": {"Title": "Geological map of the Tellaro River Valley", "DOI": "10.1080/17445647.2014.944878", "URL": "https://doi.org/10.1080/17445647.2014.944878", "Location": "SE Sicily"}}, {"type": "Feature", "geometry": {"type": "Polygon", "coordinates": [[[15.5, 38.1], [15.7, 38.1], [15.7, 38.3], [15.5, 38.3], [15.5, 38.1]]]}, "properties": {"Title": "Gravimetric gradient, Sicily and southern Calabria", "DOI": "10.1080/17445647.2014.893848", "URL": "https://doi.org/10.1080/17445647.2014.893848", "Location": "Messina Strait"}}, {"type": "Feature", "geometry": {"type": "Polygon", "coordinates": [[[13.9, 37.8], [14.2, 37.8], [14.2, 38.0], [13.9, 38.0], [13.9, 37.8]]]}, "properties": {"Title": "Geology of the Madonie Mountains", "DOI": "10.1080/00837792.1984.10670295", "URL": "https://doi.org/10.1080/00837792.1984.10670295", "Location": "Madonie"}}, {"type": "Feature", "geometry": {"type": "Polygon", "coordinates": [[[14.4, 37.8], [14.8, 37.8], [14.8, 38.0], [14.4, 38.0], [14.4, 37.8]]]}, "properties": {"Title": "Geomorphology of the Nebrodi Mountains", "DOI": "10.1007/978-3-031-60473-7_5", "URL": "https://doi.org/10.1007/978-3-031-60473-7_5", "Location": "Nebrodi"}}, {"type": "Feature", "geometry": {"type": "Polygon", "coordinates": [[[8.2, 40.5], [9.8, 40.5], [9.8, 41.3], [8.2, 41.3], [8.2, 40.5]]]}, "properties": {"Title": "Structural map of Variscan northern Sardinia", "DOI": "10.1080/17445647.2014.936914", "URL": "https://doi.org/10.1080/17445647.2014.936914", "Location": "Northern Sardinia"}}, {"type": "Feature", "geometry": {"type": "Polygon", "coordinates": [[[8.1, 38.8], [9.9, 38.8], [9.9, 41.3], [8.1, 41.3], [8.1, 38.8]]]}, "properties": {"Title": "Geohazard features of the Northern Sardinia", "DOI": "10.1080/17445647.2024.2357356", "URL": "https://doi.org/10.1080/17445647.2024.2357356", "Location": "Sardinia"}}, {"type": "Feature", "geometry": {"type": "Polygon", "coordinates": [[[8.2, 40.9], [8.4, 40.9], [8.4, 41.1], [8.2, 41.1], [8.2, 40.9]]]}, "properties": {"Title": "Geological map of the Asinara Island", "DOI": "10.4095/107633", "URL": "https://doi.org/10.4095/107633", "Location": "Asinara"}}, {"type": "Feature", "geometry": {"type": "Polygon", "coordinates": [[[9.6, 40.2], [9.8, 40.2], [9.8, 40.5], [9.6, 40.5], [9.6, 40.2]]]}, "properties": {"Title": "Geology of the Gulf of Orosei", "DOI": "10.1016/j.jcz.2004.07.004", "URL": "https://doi.org/10.1016/j.jcz.2004.07.004", "Location": "Orosei"}}, {"type": "Feature", "geometry": {"type": "Polygon", "coordinates": [[[9.2, 39.9], [9.4, 39.9], [9.4, 40.1], [9.2, 40.1], [9.2, 39.9]]]}, "properties": {"Title": "Geomorphology of the Gennargentu Massif", "DOI": "10.15553/c2012v682a4", "URL": "https://doi.org/10.15553/c2012v682a4", "Location": "Gennargentu"}}, {"type": "Feature", "geometry": {"type": "Polygon", "coordinates": [[[10.6, 44.9], [13.1, 44.9], [13.1, 46.7], [10.6, 46.7], [10.6, 44.9]]]}, "properties": {"Title": "Geomorphology of the Rotolon landslide (Veneto)", "DOI": "10.1080/17445647.2013.869666", "URL": "https://doi.org/10.1080/17445647.2013.869666", "Location": "Veneto"}}, {"type": "Feature", "geometry": {"type": "Polygon", "coordinates": [[[9.1, 44.3], [9.3, 44.3], [9.3, 44.4], [9.1, 44.4], [9.1, 44.3]]]}, "properties": {"Title": "Geoheritage map of the Portofino Natural Park", "DOI": "10.1080/17445647.2018.1433561", "URL": "https://doi.org/10.1080/17445647.2018.1433561", "Location": "Portofino"}}, {"type": "Feature", "geometry": {"type": "Polygon", "coordinates": [[[10.0, 38.0], [15.0, 38.0], [15.0, 42.0], [10.0, 42.0], [10.0, 38.0]]]}, "properties": {"Title": "Geohazard features of the Tyrrhenian seamounts", "DOI": "10.1080/17445647.2024.2359973", "URL": "https://doi.org/10.1080/17445647.2024.2359973", "Location": "Tyrrhenian Sea"}}, {"type": "Feature", "geometry": {"type": "Polygon", "coordinates": [[[11.7, 46.3], [12.5, 46.3], [12.5, 46.6], [11.7, 46.6], [11.7, 46.3]]]}, "properties": {"Title": "Areas susceptible to debris flows in the Dolomites", "DOI": "10.1080/17445647.2024.2307549", "URL": "https://doi.org/10.1080/17445647.2024.2307549", "Location": "Dolomites"}}, {"type": "Feature", "geometry": {"type": "Polygon", "coordinates": [[[10.2, 44.5], [10.4, 44.5], [10.4, 44.6], [10.2, 44.6], [10.2, 44.5]]]}, "properties": {"Title": "Geomorphology of the Roncovetro active landslide", "DOI": "10.1080/17445647.2023.2277898", "URL": "https://doi.org/10.1080/17445647.2023.2277898", "Location": "Roncovetro"}}, {"type": "Feature", "geometry": {"type": "Polygon", "coordinates": [[[7.5, 44.5], [12.5, 44.5], [12.5, 45.5], [7.5, 45.5], [7.5, 44.5]]]}, "properties": {"Title": "Geological map of the Po Plain", "DOI": "10.3997/2214-4609.20147921", "URL": "https://doi.org/10.3997/2214-4609.20147921", "Location": "Po Plain"}}, {"type": "Feature", "geometry": {"type": "Polygon", "coordinates": [[[12.2, 45.3], [12.6, 45.3], [12.6, 45.6], [12.2, 45.6], [12.2, 45.3]]]}, "properties": {"Title": "Geology of the Venice Lagoon", "DOI": "10.1016/j.jmarsys.2004.06.001", "URL": "https://doi.org/10.1016/j.jmarsys.2004.06.001", "Location": "Venice"}}, {"type": "Feature", "geometry": {"type": "Polygon", "coordinates": [[[13.4, 43.5], [13.6, 43.5], [13.6, 43.7], [13.4, 43.7], [13.4, 43.5]]]}, "properties": {"Title": "Geomorphology of the Ancona landslide", "DOI": "10.1007/978-3-319-04996-0_64", "URL": "https://doi.org/10.1007/978-3-319-04996-0_64", "Location": "Ancona"}}, {"type": "Feature", "geometry": {"type": "Polygon", "coordinates": [[[12.0, 42.5], [13.5, 42.5], [13.5, 43.8], [12.0, 43.8], [12.0, 42.5]]]}, "properties": {"Title": "Geological map of the Umbria-Marche Apennines", "DOI": "10.3301/ijg.2023.22", "URL": "https://doi.org/10.3301/ijg.2023.22", "Location": "Umbria-Marche"}}, {"type": "Feature", "geometry": {"type": "Polygon", "coordinates": [[[12.3, 45.6], [13.9, 45.6], [13.9, 46.6], [12.3, 46.6], [12.3, 45.6]]]}, "properties": {"Title": "Geology of the Friuli Venezia Giulia", "DOI": "10.1007/978-3-030-50032-0_205", "URL": "https://doi.org/10.1007/978-3-030-50032-0_205", "Location": "Friuli"}}, {"type": "Feature", "geometry": {"type": "Polygon", "coordinates": [[[6.8, 45.3], [7.9, 45.3], [7.9, 46.0], [6.8, 46.0], [6.8, 45.3]]]}, "properties": {"Title": "Geological map of the Aosta Valley", "DOI": "10.2307/1777057", "URL": "https://doi.org/10.2307/1777057", "Location": "Aosta Valley"}}, {"type": "Feature", "geometry": {"type": "Polygon", "coordinates": [[[8.5, 45.1], [9.0, 45.1], [9.0, 45.7], [8.5, 45.7], [8.5, 45.1]]]}, "properties": {"Title": "Geomorphology of the Ticino River Valley", "DOI": "10.1515/asn-2017-0015", "URL": "https://doi.org/10.1515/asn-2017-0015", "Location": "Ticino River"}}, {"type": "Feature", "geometry": {"type": "Polygon", "coordinates": [[[10.5, 45.4], [10.9, 45.4], [10.9, 45.9], [10.5, 45.9], [10.5, 45.4]]]}, "properties": {"Title": "Geology of the Lake Garda area", "DOI": "10.4159/harvard.9780674428744.c12", "URL": "https://doi.org/10.4159/harvard.9780674428744.c12", "Location": "Lake Garda"}}, {"type": "Feature", "geometry": {"type": "Polygon", "coordinates": [[[17.5, 39.8], [18.5, 39.8], [18.5, 40.5], [17.5, 40.5], [17.5, 39.8]]]}, "properties": {"Title": "Geological map of the Salento Peninsula", "DOI": "10.1080/jom.2007.9710836", "URL": "https://doi.org/10.1080/jom.2007.9710836", "Location": "Salento"}}, {"type": "Feature", "geometry": {"type": "Polygon", "coordinates": [[[16.5, 40.6], [16.7, 40.6], [16.7, 40.7], [16.5, 40.7], [16.5, 40.6]]]}, "properties": {"Title": "Geomorphology of the Matera area", "DOI": "10.2307/jj.6407882.36", "URL": "https://doi.org/10.2307/jj.6407882.36", "Location": "Matera"}}, {"type": "Feature", "geometry": {"type": "Polygon", "coordinates": [[[15.8, 38.0], [16.1, 38.0], [16.1, 38.3], [15.8, 38.3], [15.8, 38.0]]]}, "properties": {"Title": "Geology of the Aspromonte Massif", "DOI": "10.3301/gft.2017.03", "URL": "https://doi.org/10.3301/gft.2017.03", "Location": "Aspromonte"}}, {"type": "Feature", "geometry": {"type": "Polygon", "coordinates": [[[15.2, 38.0], [15.6, 38.0], [15.6, 38.3], [15.2, 38.3], [15.2, 38.0]]]}, "properties": {"Title": "Geological map of the Peloritani Mountains", "DOI": "10.1007/978-3-031-60473-7_7", "URL": "https://doi.org/10.1007/978-3-031-60473-7_7", "Location": "Peloritani"}}, {"type": "Feature", "geometry": {"type": "Polygon", "coordinates": [[[13.1, 38.7], [13.2, 38.7], [13.2, 38.8], [13.1, 38.8], [13.1, 38.7]]]}, "properties": {"Title": "Geomorphology of the Ustica Island", "DOI": "10.1353/document.3958", "URL": "https://doi.org/10.1353/document.3958", "Location": "Ustica"}}, {"type": "Feature", "geometry": {"type": "Polygon", "coordinates": [[[12.0, 37.9], [12.4, 37.9], [12.4, 38.0], [12.0, 38.0], [12.0, 37.9]]]}, "properties": {"Title": "Geology of the Egadi Islands", "DOI": "10.3974/geodb.2021.02.19.v1", "URL": "https://doi.org/10.3974/geodb.2021.02.19.v1", "Location": "Egadi Islands"}}, {"type": "Feature", "geometry": {"type": "Polygon", "coordinates": [[[15.4, 42.1], [15.6, 42.1], [15.6, 42.2], [15.4, 42.2], [15.4, 42.1]]]}, "properties": {"Title": "Geological map of the Tremiti Islands", "DOI": "10.1007/978-3-030-50032-0_572", "URL": "https://doi.org/10.1007/978-3-030-50032-0_572", "Location": "Tremiti Islands"}}, {"type": "Feature", "geometry": {"type": "Polygon", "coordinates": [[[12.9, 40.9], [13.0, 40.9], [13.0, 41.0], [12.9, 41.0], [12.9, 40.9]]]}, "properties": {"Title": "Geomorphology of the Ponza Island", "DOI": "10.1016/b978-0-12-812067-5.00010-1", "URL": "https://doi.org/10.1016/b978-0-12-812067-5.00010-1", "Location": "Ponza"}}, {"type": "Feature", "geometry": {"type": "Polygon", "coordinates": [[[14.9, 38.4], [15.0, 38.4], [15.0, 38.5], [14.9, 38.5], [14.9, 38.4]]]}, "properties": {"Title": "Geology of the Lipari Island", "DOI": "10.1353/document.3923", "URL": "https://doi.org/10.1353/document.3923", "Location": "Lipari"}}, {"type": "Feature", "geometry": {"type": "Polygon", "coordinates": [[[15.0, 38.6], [15.1, 38.6], [15.1, 38.7], [15.0, 38.7], [15.0, 38.6]]]}, "properties": {"Title": "Geological map of the Panarea Island", "DOI": "10.3974/geodb.2021.02.12.v1", "URL": "https://doi.org/10.3974/geodb.2021.02.12.v1", "Location": "Panarea"}}, {"type": "Feature", "geometry": {"type": "Polygon", "coordinates": [[[12.8, 35.8], [12.9, 35.8], [12.9, 35.9], [12.8, 35.9], [12.8, 35.8]]]}, "properties": {"Title": "Geomorphology of the Linosa Island", "DOI": "10.3974/geodb.2021.03.05.v1", "URL": "https://doi.org/10.3974/geodb.2021.03.05.v1", "Location": "Linosa"}}, {"type": "Feature", "geometry": {"type": "Polygon", "coordinates": [[[12.5, 35.5], [12.7, 35.5], [12.7, 35.6], [12.5, 35.6], [12.5, 35.5]]]}, "properties": {"Title": "Geology of the Lampedusa Island", "DOI": "10.3974/geodb.2021.03.04.v1", "URL": "https://doi.org/10.3974/geodb.2021.03.04.v1", "Location": "Lampedusa"}}, {"type": "Feature", "geometry": {"type": "Polygon", "coordinates": [[[13.5, 43.5], [13.7, 43.5], [13.7, 43.6], [13.5, 43.6], [13.5, 43.5]]]}, "properties": {"Title": "Geological map of the Monte Conero", "DOI": "10.36253/bsgi-5387", "URL": "https://doi.org/10.36253/bsgi-5387", "Location": "Monte Conero"}}, {"type": "Feature", "geometry": {"type": "Polygon", "coordinates": [[[11.5, 42.9], [11.8, 42.9], [11.8, 43.1], [11.5, 43.1], [11.5, 42.9]]]}, "properties": {"Title": "Geomorphology of the Val d'Orcia", "DOI": "10.1080/17445647.2015.1068715", "URL": "https://doi.org/10.1080/17445647.2015.1068715", "Location": "Val d'Orcia"}}, {"type": "Feature", "geometry": {"type": "Polygon", "coordinates": [[[10.1, 43.9], [10.4, 43.9], [10.4, 44.2], [10.1, 44.2], [10.1, 43.9]]]}, "properties": {"Title": "Geology of the Alpi Apuane metamorphic complex", "DOI": "10.21426/b61110541", "URL": "https://doi.org/10.21426/b61110541", "Location": "Apuan Alps"}}, {"type": "Feature", "geometry": {"type": "Polygon", "coordinates": [[[11.5, 42.8], [11.7, 42.8], [11.7, 42.9], [11.5, 42.9], [11.5, 42.8]]]}, "properties": {"Title": "Geological map of the Monte Amiata Volcano", "DOI": "10.1016/0375-6505(88)90033-8", "URL": "https://doi.org/10.1016/0375-6505(88)90033-8", "Location": "Monte Amiata"}}, {"type": "Feature", "geometry": {"type": "Polygon", "coordinates": [[[11.8, 42.5], [12.1, 42.5], [12.1, 42.7], [11.8, 42.7], [11.8, 42.5]]]}, "properties": {"Title": "Geomorphology of the Vulsini Volcanic District", "DOI": "10.1007/s004450050059", "URL": "https://doi.org/10.1007/s004450050059", "Location": "Vulsini"}}, {"type": "Feature", "geometry": {"type": "Polygon", "coordinates": [[[12.1, 42.0], [12.4, 42.0], [12.4, 42.2], [12.1, 42.2], [12.1, 42.0]]]}, "properties": {"Title": "Geology of the Sabatini Volcanic District", "DOI": "10.1080/17445647.2017.1297740", "URL": "https://doi.org/10.1080/17445647.2017.1297740", "Location": "Sabatini"}}, {"type": "Feature", "geometry": {"type": "Polygon", "coordinates": [[[13.9, 41.2], [14.1, 41.2], [14.1, 41.4], [13.9, 41.4], [13.9, 41.2]]]}, "properties": {"Title": "Geological map of the Roccamonfina Volcano", "DOI": "10.1016/0375-6505(87)90036-8", "URL": "https://doi.org/10.1016/0375-6505(87)90036-8", "Location": "Roccamonfina"}}, {"type": "Feature", "geometry": {"type": "Polygon", "coordinates": [[[14.9, 40.0], [15.6, 40.0], [15.6, 40.5], [14.9, 40.5], [14.9, 40.0]]]}, "properties": {"Title": "Geomorphology of the Cilento Vallo di Diano National Park", "DOI": "10.1007/978-981-13-2538-0_1839", "URL": "https://doi.org/10.1007/978-981-13-2538-0_1839", "Location": "Cilento"}}, {"type": "Feature", "geometry": {"type": "Polygon", "coordinates": [[[14.3, 41.3], [14.6, 41.3], [14.6, 41.5], [14.3, 41.5], [14.3, 41.3]]]}, "properties": {"Title": "Geology of the Matese Mountains", "DOI": "10.1007/s10347-004-0011-z", "URL": "https://doi.org/10.1007/s10347-004-0011-z", "Location": "Matese"}}, {"type": "Feature", "geometry": {"type": "Polygon", "coordinates": [[[14.8, 40.8], [15.2, 40.8], [15.2, 41.1], [14.8, 41.1], [14.8, 40.8]]]}, "properties": {"Title": "Geological map of the Irpinia area", "DOI": "10.4095/122054", "URL": "https://doi.org/10.4095/122054", "Location": "Irpinia"}}, {"type": "Feature", "geometry": {"type": "Polygon", "coordinates": [[[15.8, 40.5], [16.5, 40.5], [16.5, 41.0], [15.8, 41.0], [15.8, 40.5]]]}, "properties": {"Title": "Geomorphology of the Bradano Trough", "DOI": "10.1046/j.1365-3091.1996.d01-22.x", "URL": "https://doi.org/10.1046/j.1365-3091.1996.d01-22.x", "Location": "Bradano"}}, {"type": "Feature", "geometry": {"type": "Polygon", "coordinates": [[[16.0, 40.8], [17.0, 40.8], [17.0, 41.2], [16.0, 41.2], [16.0, 40.8]]]}, "properties": {"Title": "Geology of the Murge area", "DOI": "10.2307/jj.6407882.26", "URL": "https://doi.org/10.2307/jj.6407882.26", "Location": "Murge"}}, {"type": "Feature", "geometry": {"type": "Polygon", "coordinates": [[[16.3, 38.8], [16.7, 38.8], [16.7, 39.0], [16.3, 39.0], [16.3, 38.8]]]}, "properties": {"Title": "Geological map of the Catanzaro Trough", "DOI": "10.1007/978-3-031-08206-1_30010", "URL": "https://doi.org/10.1007/978-3-031-08206-1_30010", "Location": "Catanzaro"}}, {"type": "Feature", "geometry": {"type": "Polygon", "coordinates": [[[16.1, 39.3], [16.4, 39.3], [16.4, 39.7], [16.1, 39.7], [16.1, 39.3]]]}, "properties": {"Title": "Geomorphology of the Crati Valley", "DOI": "10.1016/b978-0-12-812067-5.00005-8", "URL": "https://doi.org/10.1016/b978-0-12-812067-5.00005-8", "Location": "Crati Valley"}}, {"type": "Feature", "geometry": {"type": "Polygon", "coordinates": [[[16.1, 38.4], [16.5, 38.4], [16.5, 38.8], [16.1, 38.8], [16.1, 38.4]]]}, "properties": {"Title": "Geology of the Serre Massif", "DOI": "10.4000/books.artehis.3448", "URL": "https://doi.org/10.4000/books.artehis.3448", "Location": "Serre Massif"}}, {"type": "Feature", "geometry": {"type": "Polygon", "coordinates": [[[15.8, 38.6], [16.0, 38.6], [16.0, 38.7], [15.8, 38.7], [15.8, 38.6]]]}, "properties": {"Title": "Geological map of the Capo Vaticano Promontory", "DOI": "10.1016/j.chemer.2020.125599", "URL": "https://doi.org/10.1016/j.chemer.2020.125599", "Location": "Capo Vaticano"}}, {"type": "Feature", "geometry": {"type": "Polygon", "coordinates": [[[14.5, 36.8], [15.0, 36.8], [15.0, 37.2], [14.5, 37.2], [14.5, 36.8]]]}, "properties": {"Title": "Geomorphology of the Hyblean Plateau", "DOI": "10.1016/s0040-1951(97)00228-x", "URL": "https://doi.org/10.1016/s0040-1951(97)00228-x", "Location": "Hyblean Plateau"}}, {"type": "Feature", "geometry": {"type": "Polygon", "coordinates": [[[14.2, 37.3], [14.5, 37.3], [14.5, 37.6], [14.2, 37.6], [14.2, 37.3]]]}, "properties": {"Title": "Geology of the Erei Mountains", "DOI": "10.56577/ffc-6.146", "URL": "https://doi.org/10.56577/ffc-6.146", "Location": "Erei Mts"}}, {"type": "Feature", "geometry": {"type": "Polygon", "coordinates": [[[13.3, 37.5], [13.7, 37.5], [13.7, 37.8], [13.3, 37.8], [13.3, 37.5]]]}, "properties": {"Title": "Geological map of the Sicani Mountains", "DOI": "10.1007/978-3-031-60473-7_10", "URL": "https://doi.org/10.1007/978-3-031-60473-7_10", "Location": "Sicani Mts"}}, {"type": "Feature", "geometry": {"type": "Polygon", "coordinates": [[[12.9, 37.6], [13.1, 37.6], [13.1, 37.9], [12.9, 37.9], [12.9, 37.6]]]}, "properties": {"Title": "Geomorphology of the Belice Valley", "DOI": "10.2307/j.ctt13wwz0b.10", "URL": "https://doi.org/10.2307/j.ctt13wwz0b.10", "Location": "Belice Valley"}}, {"type": "Feature", "geometry": {"type": "Polygon", "coordinates": [[[8.3, 39.0], [8.8, 39.0], [8.8, 39.3], [8.3, 39.3], [8.3, 39.0]]]}, "properties": {"Title": "Geology of the Sulcis Iglesiente", "DOI": "10.1007/978-3-030-24311-1_13", "URL": "https://doi.org/10.1007/978-3-030-24311-1_13", "Location": "Sulcis"}}, {"type": "Feature", "geometry": {"type": "Polygon", "coordinates": [[[8.1, 40.6], [8.4, 40.6], [8.4, 40.9], [8.1, 40.9], [8.1, 40.6]]]}, "properties": {"Title": "Geological map of the Nurra region", "DOI": "10.4095/107280", "URL": "https://doi.org/10.4095/107280", "Location": "Nurra"}}, {"type": "Feature", "geometry": {"type": "Polygon", "coordinates": [[[8.7, 39.2], [9.0, 39.2], [9.0, 39.8], [8.7, 39.8], [8.7, 39.2]]]}, "properties": {"Title": "Geomorphology of the Campidano Graben", "DOI": "10.1016/0016-7142(91)90026-9", "URL": "https://doi.org/10.1016/0016-7142(91)90026-9", "Location": "Campidano"}}, {"type": "Feature", "geometry": {"type": "Polygon", "coordinates": [[[9.0, 40.8], [9.6, 40.8], [9.6, 41.2], [9.0, 41.2], [9.0, 40.8]]]}, "properties": {"Title": "Geology of the Gallura region", "DOI": "10.24199/j.mmv.1947.15.14", "URL": "https://doi.org/10.24199/j.mmv.1947.15.14", "Location": "Gallura"}}, {"type": "Feature", "geometry": {"type": "Polygon", "coordinates": [[[9.4, 39.8], [9.7, 39.8], [9.7, 40.1], [9.4, 40.1], [9.4, 39.8]]]}, "properties": {"Title": "Geological map of the Ogliastra region", "DOI": "10.4095/107280", "URL": "https://doi.org/10.4095/107280", "Location": "Ogliastra"}}]}